PROVIDERCODE,PROVIDERNAME,ADDRESS,PROVINCE,REGION,ACCREDITATION,GEOMETRY,FRAME
880000000000130,"ASSOCIATED MEDICAL & CLINICAL SERVICES, INC.","3/F KALAYAAN BUILDING, CORNER SALCEDO AND DELA ROSA STREETS, LEGASPI VILLAGE, MAKATI CITY, PHILIPPINES",METRO MANILA,NCR,MAXICARE-ACCREDITED CLINIC,"<Point><coordinates>121.014420,14.558366,0.000000</coordinates></Point>","<iframe width=""800"" height=""400"" frameborder=""0"" scrolling=""no"" marginheight=""0"" marginwidth=""0"" src=""https://maps.google.com/maps/ms?msa=0&amp;msid=205370711996374509276.0004b51ca60d9a180058b&amp;ie=UTF8&amp;ll=14.558595,121.015676&amp;spn=0,0&amp;t=m&amp;output=embed""></iframe><br /><small>View <a href=""https://maps.google.com/maps/ms?msa=0&amp;msid=205370711996374509276.0004b51ca60d9a180058b&amp;ie=UTF8&amp;ll=14.558595,121.015676&amp;spn=0,0&amp;t=m&amp;source=embed"" style=""color:#0000FF;text-align:left"">ASSOCIATED MEDICAL &amp; CLINICAL SERVICES</a> in a larger map</small>"
880000000002116,UNIVERSITY OF SANTO TOMAS HOSPITAL,"UNIV. OF SANTO TOMAS CMPD., ESPAÑA, MANILA CITY, METRO MANILA, PHILIPPINES",METRO MANILA,NCR,MAXICARE-ACCREDITED HOSPITAL,"<Point><coordinates>120.990456,14.610978,0.000000</coordinates></Point>","<iframe width=""800"" height=""400"" scrolling=""no"" frameborder=""no"" src=""https://www.google.com/fusiontables/embedviz?viz=MAP&amp;q=select+col7+from+17dcSr8gdGmKdILwESwmstqQtOlGT2QtpPIK6z_Q+where+col1+%3D+&#39;880000000002116&#39;&amp;h=false&amp;lat=14.61040673369792&amp;lng=120.9903616981239&amp;z=18&amp;t=1&amp;l=col7""></iframe>"
880000000009712,HEALTH SCAN LABORATORY & DIAGNOSTIC CENTER,"UNIT 3,5,7 CABY'S COMMERCIAL 94 MAGSAYSAY DRIVE EAST TAPINAC, OLONGAPO CITY, ZAMBALES, PHILIPPINES",ZAMBALES,REGION 3,MAXICARE-ACCREDITED CLINIC,"<Point><coordinates>120.281265,14.830312,0.000000</coordinates></Point>","<iframe width=""800"" height=""400"" scrolling=""no"" frameborder=""no"" src=""https://www.google.com/fusiontables/embedviz?viz=MAP&amp;q=select+col7+from+17dcSr8gdGmKdILwESwmstqQtOlGT2QtpPIK6z_Q+where+col1+%3D+&#39;880000000009712&#39;&amp;h=false&amp;lat=14.830167241965295&amp;lng=120.28159064814756&amp;z=18&amp;t=1&amp;l=col7""></iframe>"
880000000012228,PFC AMBULATORY MEDICINE AND SURGERY CENTER,"335 RIZAL AVENUE CORNER 3RD ST. WEST TAPINAC, OLONGAPO CITY, ZAMBALES, PHILIPPINES",ZAMBALES,REGION 3,MAXICARE-ACCREDITED CLINIC,"<Point><coordinates>120.279877,14.829189,0.000000</coordinates></Point>","<iframe width=""800"" height=""400"" scrolling=""no"" frameborder=""no"" src=""https://www.google.com/fusiontables/embedviz?viz=MAP&amp;q=select+col7+from+17dcSr8gdGmKdILwESwmstqQtOlGT2QtpPIK6z_Q+where+col1+%3D+&#39;880000000012228&#39;&amp;h=false&amp;lat=14.828808578378792&amp;lng=120.27986330554197&amp;z=17&amp;t=1&amp;l=col7""></iframe>"
880000000012299,JESUS NAZARENE GENERAL HOSPITAL,"VICENTE SOLIS ST., POBLACION, LINGAYEN, PANGASINAN, PHILIPPINES",PANGASINAN,REGION 1,MAXICARE-ACCREDITED HOSPITAL,"<Point><coordinates>120.232185,16.014507,0.000000</coordinates></Point>","<iframe width=""800"" height=""400"" scrolling=""no"" frameborder=""no"" src=""https://www.google.com/fusiontables/embedviz?viz=MAP&amp;q=select+col7+from+17dcSr8gdGmKdILwESwmstqQtOlGT2QtpPIK6z_Q+where+col1+%3D+&#39;880000000012299&#39;&amp;h=false&amp;lat=16.015675135168426&amp;lng=120.23503554627607&amp;z=16&amp;t=1&amp;l=col7""></iframe>"
880000000013234,ACCUVISION DIAGNOSTIC CENTER INC.,"G/F 703 REINA REGENTE ST., BINONDO, MANILA CITY, METRO MANILA, PHILIPPINES",METRO MANILA,NCR,MAXICARE-ACCREDITED CLINIC,"<Point><coordinates>120.973656,14.601395,0.000000</coordinates></Point>","<iframe width=""800"" height=""400"" scrolling=""no"" frameborder=""no"" src=""https://www.google.com/fusiontables/embedviz?viz=MAP&amp;q=select+col7+from+17dcSr8gdGmKdILwESwmstqQtOlGT2QtpPIK6z_Q+where+col1+%3D+&#39;880000000013234&#39;&amp;h=false&amp;lat=14.601183518337951&amp;lng=120.97379637524793&amp;z=19&amp;t=1&amp;l=col7""></iframe>"
880000000014861,"BAYPOINTE HOSPITAL AND MEDICAL CENTER, INC.","BLOCK 8, LOT 1A & 1B DEWEY AVE., CBD AREA, SUBIC BAY FREEPORT ZONE, OLONGAPO CITY, ZAMBALES, PHILIPPINES",ZAMBALES,REGION 3,MAXICARE-ACCREDITED HOSPITAL,"<Point><coordinates>120.278366,14.825004,0.000000</coordinates></Point>","<iframe width=""800"" height=""400"" scrolling=""no"" frameborder=""no"" src=""https://www.google.com/fusiontables/embedviz?viz=MAP&amp;q=select+col7+from+17dcSr8gdGmKdILwESwmstqQtOlGT2QtpPIK6z_Q+where+col1+%3D+&#39;880000000014861&#39;&amp;h=false&amp;lat=14.82496542663955&amp;lng=120.27891916796872&amp;z=18&amp;t=1&amp;l=col7""></iframe>"
880000000009277,PHILIPPINE ORTHOPEDIC INSTITUTE,"2/F DON JACINTO BLDG., DELA ROSA ST., MAKATI CITY, METRO MANILA, PHILIPPINES",METRO MANILA,NCR,MAXICARE-ACCREDITED CLINIC,"<Point><coordinates>121.015259,14.558642,0.000000</coordinates></Point>","<iframe width=""800"" height=""400"" scrolling=""no"" frameborder=""no"" src=""https://www.google.com/fusiontables/embedviz?viz=MAP&amp;q=select+col7+from+1aslYLEhe-4tfd8u5FHDTYx0fDsyrT2RGtvf9n0g&amp;h=false&amp;lat=14.558591525259038&amp;lng=121.01525527999112&amp;z=20&amp;t=1&amp;l=col7""></iframe>"
880000000006035,MAKATI MEDICAL CENTER,"AMORSOLO CORNER DELA ROSA ST.,LEGAZPI VILLAGE, MAKATI CITY, METRO MANILA, PHILIPPINES",METRO MANILA,NCR,MAXICARE-ACCREDITED HOSPITAL,"<Point><coordinates>121.014900,14.559353,0.000000</coordinates></Point>","<iframe width=""800"" height=""400"" scrolling=""no"" frameborder=""no"" src=""https://www.google.com/fusiontables/embedviz?viz=MAP&amp;q=select+col7+from+1aslYLEhe-4tfd8u5FHDTYx0fDsyrT2RGtvf9n0g&amp;h=false&amp;lat=14.559275592915194&amp;lng=121.01535183951566&amp;z=18&amp;t=1&amp;l=col7""></iframe>"
880000000000028,"AFABLE MEDICAL CENTER, INC.","4 AFABLE ST. EAST BAJAC-BAJAC, OLONGAPO CITY, ZAMBALES, PHILIPPINES",ZAMBALES,REGION 3,MAXICARE-ACCREDITED HOSPITAL,"<Point><coordinates>120.284531,14.838697,0.000000</coordinates></Point>","<iframe width=""800"" height=""400"" scrolling=""no"" frameborder=""no"" src=""https://www.google.com/fusiontables/embedviz?viz=MAP&amp;q=select+col7+from+17dcSr8gdGmKdILwESwmstqQtOlGT2QtpPIK6z_Q+where+col1+%3D+&#39;880000000000028+&#39;&amp;h=false&amp;lat=14.837849753600205&amp;lng=120.28558713957975&amp;z=17&amp;t=1&amp;l=col7""></iframe>"
880000000012266,CICOSAT HOSPITAL,"LINGSAT, SAN FERNANDO, LA UNION, PHILIPPINES",LA UNION,REGION 1,MAXICARE-ACCREDITED HOSPITAL,"<Point><coordinates>120.311737,16.637772,0.000000</coordinates></Point>","<iframe width=""800"" height=""400"" scrolling=""no"" frameborder=""no"" src=""https://www.google.com/fusiontables/embedviz?viz=MAP&amp;q=select+col7+from+17dcSr8gdGmKdILwESwmstqQtOlGT2QtpPIK6z_Q+where+col1+%3D+&#39;880000000012266&#39;&amp;h=false&amp;lat=16.637315406393874&amp;lng=120.31228584811399&amp;z=18&amp;t=1&amp;l=col7""></iframe>"
880000000013301,FLORES-FERNANDEZ DENTAL CLINIC,"#57 GOB. LUNA  ST., SAN FERNANDO CITY, LA UNION, PHILIPPINES",LA UNION,REGION 1,MAXICARE-ACCREDITED DENTAL CLINIC,"<Point><coordinates>120.315666,16.616062,0.000000</coordinates></Point>","<iframe width=""800"" height=""400"" scrolling=""no"" frameborder=""no"" src=""https://www.google.com/fusiontables/embedviz?viz=MAP&amp;q=select+col7+from+17dcSr8gdGmKdILwESwmstqQtOlGT2QtpPIK6z_Q+where+col1+%3D+&#39;880000000013301&#39;&amp;h=false&amp;lat=16.61588059181393&amp;lng=120.31596583888242&amp;z=18&amp;t=1&amp;l=col7""></iframe>"
880000000000250,BETHANY HOSPITAL,"REAL ST., TACLOBAN CITY, LEYTE, PHILIPPINES",LEYTE,REGION 8,MAXICARE-ACCREDITED HOSPITAL,"<Point><coordinates>125.002678,11.232318,0.000000</coordinates></Point>",
880000000001329,LORMA MEDICAL CENTER,"CARLATAN, SAN FERNANDO, LA UNION, PHILIPPINES",LA UNION,REGION 1,MAXICARE-ACCREDITED HOSPITAL,"<Point><coordinates>120.317955,16.631474,0.000000</coordinates></Point>",
880000000014506,K.L. VILLAR DENTAL CLINIC,"GOV. AGUILA ROAD, SEVILLA NORTE, SAN FERNANDO CITY, LA UNION, PHILIPPINES",LA UNION,REGION 1,MAXICARE-ACCREDITED DENTAL CLINIC,"<Point><coordinates>120.318893,16.614254,0.000000</coordinates></Point>",
880000000010884,DAGUPAN ORTHOPEDIC CENTER,"TAPUAC DISTRICT, DAGUPAN CITY, PANGASINAN, PHILIPPINES",PANGASINAN,REGION 1,MAXICARE-ACCREDITED HOSPITAL,"<Point><coordinates>120.328392,16.030203,0.000000</coordinates></Point>",
880000000013341,CASIPIT DENTAL CLINIC - LINGAYEN,"33 TONTON WEST, LINGAYEN, PANGASINAN, PHILIPPINES",PANGASINAN,REGION 1,MAXICARE-ACCREDITED DENTAL CLINIC,"<Point><coordinates>120.328529,16.023582,0.000000</coordinates></Point>",
880000000001349,LUZON MEDICAL CENTER,"329 MCARHUR HIGHWAY, TAPUAC DISTRCT, DAGUPAN CITY, PANGASINAN, PHILIPPINES",PANGASINAN,REGION 1,MAXICARE-ACCREDITED HOSPITAL,"<Point><coordinates>120.331772,16.033573,0.000000</coordinates></Point>",
880000000001632,NAZARETH GENERAL HOSPITAL,"# 203 PEREZ BLVD., DAGUPAN CITY, PANGASINAN, PHILIPPINES",PANGASINAN,REGION 1,MAXICARE-ACCREDITED HOSPITAL,"<Point><coordinates>120.339783,16.040874,0.000000</coordinates></Point>",
880000000011240,ELGUIRA GENERAL HOSPITAL,"259 RIZAL AVENUE, SAN CARLOS CITY, PANGASINAN, PHILIPPINES",PANGASINAN,REGION 1,MAXICARE-ACCREDITED HOSPITAL,"<Point><coordinates>120.346458,15.937546,0.000000</coordinates></Point>",
880000000006026,DAGUPAN DOCTORS VILLAFLOR MEMORIAL HOSPITAL INC,"MAYOMBO DISTRICT, DAGUPAN CITY, PANGASINAN, PHILIPPINES",PANGASINAN,REGION 1,MAXICARE-ACCREDITED HOSPITAL,"<Point><coordinates>120.346939,16.037069,0.000000</coordinates></Point>",
880000000009733,CIPRIANA COQUIA MEMORIAL DIALYSIS AND KIDNEY CENTER,"COQUIA BLDG., 275 CARANGLAAN, DAGUPAN CITY, PANGASINAN, PHILIPPINES",PANGASINAN,REGION 1,MAXICARE-ACCREDITED CLINIC,"<Point><coordinates>120.348618,16.034595,0.000000</coordinates></Point>",
880000000011553,DECENA GENERAL HOSPITAL,"BONUAN GUESET, DAGUPAN CITY, PANGASINAN, PHILIPPINES",PANGASINAN,REGION 1,MAXICARE-ACCREDITED HOSPITAL,"<Point><coordinates>120.352242,16.081053,0.000000</coordinates></Point>",
880000000001497,MEDICAL CENTRUM DAGUPAN,"A.B. FERNANDEZ AVENUE EAST, DAGUPAN CITY, PANGASINAN, PHILIPPINES",PANGASINAN,REGION 1,MAXICARE-ACCREDITED HOSPITAL,"<Point><coordinates>120.352638,16.046247,0.000000</coordinates></Point>",
880000000013134,PERTIERRA-NOGUERA DENTAL CLINIC,"2ND FLR.PARAYNO BLDG. POBLACION EAST CALASIO  PANGASINAN, CALASIAO, PANGASINAN, PHILIPPINES",PANGASINAN,REGION 1,MAXICARE-ACCREDITED DENTAL CLINIC,"<Point><coordinates>120.355759,16.008835,0.000000</coordinates></Point>",
880000000002232,ST. JAMES HOSPITAL VQR MEDICAL FOUNDATION,"PANTAY, DAYA, VIGAN CITY, ILOCOS SUR, PHILIPPINES",ILOCOS SUR,REGION 1,MAXICARE-ACCREDITED HOSPITAL,"<Point><coordinates>120.372688,17.601076,0.000000</coordinates></Point>",
880000000009104,METRO VIGAN COOPERATIVE HOSPITAL,"ROXAS DIKE ROAD, BANTAY, , ILOCOS SUR, PHILIPPINES",ILOCOS SUR,REGION 1,MAXICARE-ACCREDITED HOSPITAL,"<Point><coordinates>120.386566,17.580795,0.000000</coordinates></Point>",
880000000014663,SHIELA PAZ LORAINE REYES JURADO DENTAL CLINIC,"20 BONIFACIO ST., VIGAN CITY, ILOCOS SUR, PHILIPPINES",ILOCOS SUR,REGION 1,MAXICARE-ACCREDITED DENTAL CLINIC,"<Point><coordinates>120.388313,17.573053,0.000000</coordinates></Point>",
880000000000395,CANDON GENERAL HOSPITAL,"TABLAC, CANDON CITY, ILOCOS SUR, PHILIPPINES",ILOCOS SUR,REGION 1,MAXICARE-ACCREDITED HOSPITAL,"<Point><coordinates>120.456848,17.211250,0.000000</coordinates></Point>",
880000000013691,MAHESECO MULTI-PURPOSE COOPERATIVE HOSPITAL,"LAKANDULA ST., POBLACION, MARIVELES, BATAAN, PHILIPPINES",BATAAN,REGION 3,MAXICARE-ACCREDITED HOSPITAL,"<Point><coordinates>120.486137,14.433727,0.000000</coordinates></Point>",
880000000002611,WOMEN'S HOSPITAL,"SAMPAGUITA ST., ST. JOSEPH SUBDIVISION, BALANGA CITY, BATAAN, PHILIPPINES",BATAAN,REGION 3,MAXICARE-ACCREDITED HOSPITAL,"<Point><coordinates>120.535583,14.677474,0.000000</coordinates></Point>",
880000000009070,ILAYA MEDICAL CLINIC,"LAUREL ST., SAN JOSE,, BALANGA CITY, BATAAN, PHILIPPINES",BATAAN,REGION 3,MAXICARE-ACCREDITED CLINIC,"<Point><coordinates>120.537987,14.678862,0.000000</coordinates></Point>",
880000000000218,"BATAAN ST. JOSEPH HOSPITAL, INC.","DON MANUEL BANZON AVE., BALANGA CITY, BATAAN, PHILIPPINES",BATAAN,REGION 3,MAXICARE-ACCREDITED HOSPITAL,"<Point><coordinates>120.541588,14.681433,0.000000</coordinates></Point>",
880000000000216,"BATAAN DOCTORS HOSPITAL, INC.","DONA, FRANCISCA SUBDIVISION, BALANGA CITY, BATAAN, PHILIPPINES",BATAAN,REGION 3,MAXICARE-ACCREDITED HOSPITAL,"<Point><coordinates>120.542763,14.682829,0.000000</coordinates></Point>",
880000000013799,CAJIGAL DENTAL CLINIC,"2 / F LUZOD BLDG., WASHINGTON ST., ABLAN, BATAC, ILOCOS NORTE, BATAC, ILOCOS NORTE, PHILIPPINES",ILOCOS NORTE,REGION 1,MAXICARE-ACCREDITED DENTAL CLINIC,"<Point><coordinates>120.566071,18.058151,0.000000</coordinates></Point>",
880000000014802,LIFECARE MEDICAL AND DIAGNOSTIC CENTER,"2/F ROCCA BLDG., ALEXANDER ST., POBLACION, URDANETA CITY, PANGASINAN, PHILIPPINES",PANGASINAN,REGION 1,MAXICARE-ACCREDITED CLINIC,"<Point><coordinates>120.569717,15.975723,0.000000</coordinates></Point>",
880000000011261,ORION ST. MICHAEL HOSPITAL,"CALLE JOSE PROTACIO RIZAL WAKAS, ORION, BATAAN, PHILIPPINES",BATAAN,REGION 3,MAXICARE-ACCREDITED HOSPITAL,"<Point><coordinates>120.577972,14.620072,0.000000</coordinates></Point>",
880000000000474,CENTRAL LUZON DOCTORS HOSPITAL,"HOSPITAL DRIVE, SAN VICENTE, TARLAC CITY, TARLAC, PHILIPPINES",TARLAC,REGION 3,MAXICARE-ACCREDITED HOSPITAL,"<Point><coordinates>120.587288,15.478352,0.000000</coordinates></Point>",
880000000000705,DR. ANTONIO A. RANADA CLINIC & LYING-IN HOSPITAL,"BRGY. 7-A S. HERNANDO AVE, LAOAG CITY, ILOCOS NORTE, PHILIPPINES",ILOCOS NORTE,REGION 1,MAXICARE-ACCREDITED HOSPITAL,"<Point><coordinates>120.590881,18.196911,0.000000</coordinates></Point>",
880000000006065,TALON GENERAL HOSPITAL,"F. TANEDO ST., TARLAC CITY, TARLAC, PHILIPPINES",TARLAC,REGION 3,MAXICARE-ACCREDITED HOSPITAL,"<Point><coordinates>120.591553,15.490803,0.000000</coordinates></Point>",
880000000001936,RANADA GENERAL HOSPITAL,"BRGY. 9 BALINTAWAK STS., LAOAG CITY, ILOCOS NORTE, PHILIPPINES",ILOCOS NORTE,REGION 1,MAXICARE-ACCREDITED HOSPITAL,"<Point><coordinates>120.592102,18.196562,0.000000</coordinates></Point>",
880000000009128,RAMOS GENERAL HOSPITAL,"769 P. HILARIO ST., LIGTASAN, TARLAC CITY, TARLAC, PHILIPPINES",TARLAC,REGION 3,MAXICARE-ACCREDITED HOSPITAL,"<Point><coordinates>120.592773,15.484871,0.000000</coordinates></Point>",
880000000009687,BONE & JOINT CLINIC,"21 P. GOMEZ STREET, LAOAG CITY, ILOCOS NORTE, PHILIPPINES",ILOCOS NORTE,REGION 1,MAXICARE-ACCREDITED CLINIC,"<Point><coordinates>120.593811,18.202988,0.000000</coordinates></Point>",
880000000009472,PINES CITY DOCTORS HOSPITAL,"MAGSAYSAY AVENUE, BAGUIO CITY, BENGUET, PHILIPPINES",BENGUET,CAR,MAXICARE-ACCREDITED HOSPITAL,"<Point><coordinates>120.594543,16.426937,0.000000</coordinates></Point>",
880000000013797,BUDUAN DENTAL CLINIC,"G / F BUNO'S BLDG., J.P. RIZAL, LAOAG CITY, ILOCOS NORTE, LAOAG CITY, ILOCOS NORTE, PHILIPPINES",ILOCOS NORTE,REGION 1,MAXICARE-ACCREDITED DENTAL CLINIC,"<Point><coordinates>120.594643,18.195118,0.000000</coordinates></Point>",
880000000001548,METROBAGUIO LABORATORIES,"146 KISAD ROAD (BGH ROTONDA), BAGUIO CITY, BENGUET, PHILIPPINES",BENGUET,CAR,MAXICARE-ACCREDITED CLINIC,"<Point><coordinates>120.595436,16.402897,0.000000</coordinates></Point>",
880000000012075,BENGUET LABORATORIES-CENTER MALL BRANCH,"LM 4 BAGUIO CENTER MALL, MAGSAYSAY AVE., BAGUIO CITY, BENGUET, PHILIPPINES",BENGUET,CAR,MAXICARE-ACCREDITED CLINIC,"<Point><coordinates>120.596352,16.416471,0.000000</coordinates></Point>",
880000000013305,D.M TAGUDAR DENTAL CLINIC,"MEZZANINE FLR. ROMEL BLDG. 56 BONIFACIO ST., BAGUIO CITY, BENGUET, PHILIPPINES",BENGUET,CAR,MAXICARE-ACCREDITED DENTAL CLINIC,"<Point><coordinates>120.596664,16.418385,0.000000</coordinates></Point>",
880000000013304,ADNOL DENTAL CLINIC,"RM.107 VICTORIASHOPPES VILLE. UPPER MABINI STREET, BAGUIO CITY, BENGUET, PHILIPPINES",BENGUET,CAR,MAXICARE-ACCREDITED DENTAL CLINIC,"<Point><coordinates>120.596710,16.413836,0.000000</coordinates></Point>",
880000000013302,PRESILLAS-COSTALES DENTAL CLINIC,"RM.A207A LOPEZ BLDG. SESSION RD. BAGUIO CITY, BAGUIO CITY, BENGUET, BAGUIO CITY, BENGUET, PHILIPPINES",BENGUET,CAR,MAXICARE-ACCREDITED DENTAL CLINIC,"<Point><coordinates>120.596794,16.412889,0.000000</coordinates></Point>",
880000000009306,HOLY TRINITY HOSPITAL,"# 505 QUEZON ST. SAN MIGUEL, TARLAC CITY, TARLAC, PHILIPPINES",TARLAC,REGION 3,MAXICARE-ACCREDITED HOSPITAL,"<Point><coordinates>120.596848,15.433323,0.000000</coordinates></Point>",
880000000014737,ABRIOL DENTAL CLINIC,"212 VICTORIA SHOPPESVILLE UPPER MABINI, BAGUIO CITY, BENGUET, PHILIPPINES",BENGUET,CAR,MAXICARE-ACCREDITED DENTAL CLINIC,"<Point><coordinates>120.596916,16.413990,0.000000</coordinates></Point>",
880000000002283,ST. LOUIS UNIVERSITY HOSPITAL OF THE SACRED HEART,"ASSUMPTION ROAD, BAGUIO CITY, BENGUET, PHILIPPINES",BENGUET,CAR,MAXICARE-ACCREDITED HOSPITAL,"<Point><coordinates>120.597618,16.417118,0.000000</coordinates></Point>",
880000000013796,SUGUITAN DENTAL CLINIC,"RM. 102 NORTHERN DOCTORS GEN. HOSPITAL, J.P. RIZAL ST.,, LAOAG CITY, ILOCOS NORTE, PHILIPPINES",ILOCOS NORTE,REGION 1,MAXICARE-ACCREDITED DENTAL CLINIC,"<Point><coordinates>120.597748,18.194191,0.000000</coordinates></Point>",
880000000000174,BAGUIO DOCTOR'S MEDICAL LABORATORY,"RMS. 212 -215 GP SHOPPING ARCADE, UPPER MABINI STREET, BAGUIO CITY, BENGUET, PHILIPPINES",BENGUET,CAR,MAXICARE-ACCREDITED CLINIC,"<Point><coordinates>120.598053,16.411381,0.000000</coordinates></Point>",
880000000001955,ILOCOS EENT CLINIC,"BRGY. 20 M.H. DEL PILAR ST., LAOAG CITY, ILOCOS NORTE, PHILIPPINES",ILOCOS NORTE,REGION 1,MAXICARE-ACCREDITED CLINIC,"<Point><coordinates>120.598427,18.195395,0.000000</coordinates></Point>",
880000000009357,NOTRE DAME DE CHARTRES HOSPITAL,"25 GEN. LUNA ROAD, BAGUIO CITY, BENGUET, PHILIPPINES",BENGUET,CAR,MAXICARE-ACCREDITED HOSPITAL,"<Point><coordinates>120.598846,16.415766,0.000000</coordinates></Point>",
880000000009364,BENGUET LABORATORIES-SM BAGUIO BRANCH,"UNIT 044-045 LOWER GROUND FLOOR, SM CITY BAGUIO LUNETA HILL, BAGUIO CITY, BENGUET, PHILIPPINES",BENGUET,CAR,MAXICARE-ACCREDITED CLINIC,"<Point><coordinates>120.599411,16.409000,0.000000</coordinates></Point>",
880000000013795,MANUEL- RELIGIOSO DENTAL CLINIC,"BRGY. 14 M.H. DEL COR. ACOSTA & PILAR STS.,  LAOAG CITY, LAOAG CITY, ILOCOS NORTE, PHILIPPINES",ILOCOS NORTE,REGION 1,MAXICARE-ACCREDITED DENTAL CLINIC,"<Point><coordinates>120.604820,18.194048,0.000000</coordinates></Point>",
880000000000200,BANGUED CHRISTIAN HOSPITAL,"TORRIJOS ST. ZONE 5, BANGUED, ABRA, PHILIPPINES",ABRA,CAR,MAXICARE-ACCREDITED HOSPITAL,"<Point><coordinates>120.614967,17.597660,0.000000</coordinates></Point>",
880000000000757,DR. PETRONILO V. SEARES SR. MEMORIAL HOSPITAL,"PENARRUBIA ST., ZONE 4, BANGUED, ABRA, PHILIPPINES",ABRA,CAR,MAXICARE-ACCREDITED HOSPITAL,"<Point><coordinates>120.620422,17.596197,0.000000</coordinates></Point>",
880000000013917,DR. EUTIQUIO LL. ATANACIO JR. MEMORIAL HOSPITAL INC,"F. TIMBOL ST., SAN NICOLAS, CONCEPCION, CONCEPCION, TARLAC, PHILIPPINES",TARLAC,REGION 3,MAXICARE-ACCREDITED HOSPITAL,"<Point><coordinates>120.655830,15.323354,0.000000</coordinates></Point>",
880000000009683,TAYUG FAMILY HOSPITAL,"# 1058 MAGSAYSAY ST., TAYUG, PANGASINAN, PHILIPPINES",PANGASINAN,REGION 1,MAXICARE-ACCREDITED HOSPITAL,"<Point><coordinates>120.743164,16.027969,0.000000</coordinates></Point>",
880000000009681,SAN PASCUAL BAYLON MATERNITY AND GENERAL HOSPITAL,"STO. NINO, PAOMBONG, BULACAN, PHILIPPINES",BULACAN,REGION 3,MAXICARE-ACCREDITED HOSPITAL,"<Point><coordinates>120.789497,14.837383,0.000000</coordinates></Point>",
880000000002119,SANTOS GENERAL HOSPITAL OF MALOLOS,"F. ESTRELLA ST., STO. ROSARIO, MALOLOS CITY, BULACAN, PHILIPPINES",BULACAN,REGION 3,MAXICARE-ACCREDITED HOSPITAL,"<Point><coordinates>120.811699,14.840922,0.000000</coordinates></Point>",
880000000010896,SANTISSIMA TRINIDAD HOSPITAL,"MABINI, PINAGBAKAHAN, MALOLOS CITY, BULACAN, PHILIPPINES",BULACAN,REGION 3,MAXICARE-ACCREDITED HOSPITAL,"<Point><coordinates>120.814598,14.831795,0.000000</coordinates></Point>",
880000000001405,MALOLOS SAN VICENTE HOSPITAL,"LUCERO ST., CANIOGAN, MALOLOS CITY, BULACAN, PHILIPPINES",BULACAN,REGION 3,MAXICARE-ACCREDITED HOSPITAL,"<Point><coordinates>120.816994,14.845718,0.000000</coordinates></Point>",
880000000001730,OUR SAVIOR HOSPITAL,"GENERAL TRIAS DRIVE, ROSARIO, CAVITE, PHILIPPINES",CAVITE,REGION 4-A,MAXICARE-ACCREDITED HOSPITAL,"<Point><coordinates>120.856415,14.414283,0.000000</coordinates></Point>",
880000000014759,TEETH B WITH YOU DENTAL CLINIC,"259 2ND FLOOR SM CITY ROSARIO, ROSARIO, CAVITE, PHILIPPINES",CAVITE,REGION 4-A,MAXICARE-ACCREDITED DENTAL CLINIC,"<Point><coordinates>120.857674,14.409514,0.000000</coordinates></Point>",
880000000009129,CONTRERAS MEDICAL CLINIC,"GEN. TRIAS DRIVE, POBLACION, ROSARIO, CAVITE, PHILIPPINES",CAVITE,REGION 4-A,MAXICARE-ACCREDITED HOSPITAL,"<Point><coordinates>120.857857,14.413488,0.000000</coordinates></Point>",
880000000009008,OUR LADY OF MERCY GENERAL HOSPITAL,"DOÑA REMEDIOS TRINIDAD, LONGOS, PULILAN, BULACAN, PHILIPPINES",BULACAN,REGION 3,MAXICARE-ACCREDITED HOSPITAL,"<Point><coordinates>120.866089,14.893929,0.000000</coordinates></Point>",
880000000002111,M.V. SANTIAGO MEDICAL CENTER,"BRGY. DE OCAMPO, , CAVITE, PHILIPPINES",CAVITE,REGION 4-A,MAXICARE-ACCREDITED HOSPITAL,"<Point><coordinates>120.866150,14.294255,0.000000</coordinates></Point>",
880000000000663,DIVINE GRACE MEDICAL CENTER,"BY PASS ROAD BACAO, GENERAL TRIAS, CAVITE, PHILIPPINES",CAVITE,REGION 4-A,MAXICARE-ACCREDITED HOSPITAL,"<Point><coordinates>120.867973,14.397813,0.000000</coordinates></Point>",
880000000013311,M.E.C. CUDIAMAT DENTAL CLINIC,"UNIT 1&2 NEWHALL COMM. CENTER MANGGAHAN,, GENERAL TRIAS, CAVITE, PHILIPPINES",CAVITE,REGION 4-A,MAXICARE-ACCREDITED DENTAL CLINIC,"<Point><coordinates>120.868439,14.282218,0.000000</coordinates></Point>",
880000000009758,MULTILAB DIAGNOSTIC & HEALTH SERVICES,"#52 TRECE INDANG ROAD, BRGY. LUCIANO, , CAVITE, PHILIPPINES",CAVITE,REGION 4-A,MAXICARE-ACCREDITED CLINIC,"<Point><coordinates>120.870872,14.276153,0.000000</coordinates></Point>",
880000000013370,BASA DENTAL CLINIC - CAVITE,"179 PLARIDEL ST. INDANG CAVITE, INDANG, CAVITE, PHILIPPINES",CAVITE,REGION 4-A,MAXICARE-ACCREDITED DENTAL CLINIC,"<Point><coordinates>120.880531,14.195163,0.000000</coordinates></Point>",
880000000000444,CAVITE MEDICAL CENTER,"DALAHICAN, CAVITE CITY, CAVITE, PHILIPPINES",CAVITE,REGION 4-A,MAXICARE-ACCREDITED HOSPITAL,"<Point><coordinates>120.881889,14.463436,0.000000</coordinates></Point>",
880000000000227,BAUTISTA HOSPITAL,"375 P. BURGOS AVENUE CARIDAD, CAVITE CITY, CAVITE, PHILIPPINES",CAVITE,REGION 4-A,MAXICARE-ACCREDITED HOSPITAL,"<Point><coordinates>120.892181,14.477458,0.000000</coordinates></Point>",
880000000000623,DE JESUS GENERAL HOSPITAL,"5 B. AQUINO AVENUE, BALIUAG, BULACAN, PHILIPPINES",BULACAN,REGION 3,MAXICARE-ACCREDITED HOSPITAL,"<Point><coordinates>120.899666,14.957190,0.000000</coordinates></Point>",
880000000001435,MARCELO HOSPITAL,"237 M. PONCE, BALIUAG, BULACAN, PHILIPPINES",BULACAN,REGION 3,MAXICARE-ACCREDITED HOSPITAL,"<Point><coordinates>120.901604,14.956060,0.000000</coordinates></Point>",
880000000013631,CASTRO MATERNITY & GENERAL HOSPITAL,"CASTRO HOSPITAL F. RUSTIA ST., BALIUAG, BULACAN, PHILIPPINES",BULACAN,REGION 3,MAXICARE-ACCREDITED DENTAL CLINIC,"<Point><coordinates>120.903511,14.957897,0.000000</coordinates></Point>",
880000000000975,"GRACE MEMORIAL HOSPITAL FOUNDATION, INC.","003 BUROL II, BALAGTAS (BIGAA), BULACAN, PHILIPPINES",BULACAN,REGION 3,MAXICARE-ACCREDITED HOSPITAL,"<Point><coordinates>120.904625,14.828505,0.000000</coordinates></Point>",
880000000013315,DR. MELODY D. UY-CELESTINO DENTAL CLINIC,"B10 L20 SAPHIRE ST. SUNSHINE VILLAGE MANGGAHAN, GENERAL TRIAS, CAVITE, PHILIPPINES",CAVITE,REGION 4-A,MAXICARE-ACCREDITED DENTAL CLINIC,"<Point><coordinates>120.909393,14.297946,0.000000</coordinates></Point>",
880000000003016,RUGAY MATERNITY AND GENERAL HOSPITAL,"M. CRUZ ST., CARPA VILLAGE, SABANG, BALIUAG, BULACAN, PHILIPPINES",BULACAN,REGION 3,MAXICARE-ACCREDITED HOSPITAL,"<Point><coordinates>120.913849,14.968568,0.000000</coordinates></Point>",
880000000006058,SOUTH SUPERHIGHWAY MEDICAL CENTER,"K.M 16 WEST SERVICE ROAD, SOUTH SUPERHIGHWAY, PARAÑAQUE CITY, METRO MANILA, PHILIPPINES",METRO MANILA,NCR,MAXICARE-ACCREDITED HOSPITAL,"<Point><coordinates>120.920670,14.265322,0.000000</coordinates></Point>",
880000000013183,"MAMOLO, NENA RUTH DENTAL CLINIC","61 CM PLAZA BLDG. DON PLACIDO CAMPOS AVE., DASMARIÑAS, CAVITE, PHILIPPINES",CAVITE,REGION 4-A,MAXICARE-ACCREDITED DENTAL CLINIC,"<Point><coordinates>120.933357,14.328509,0.000000</coordinates></Point>",
880000000013182,DRA. RACHELE A. PEREZ DENTAL CLINIC,"BAUCAN BLDG. 3 MALIHAN ST. ZONE 1, DASMARIÑAS, CAVITE, PHILIPPINES",CAVITE,REGION 4-A,MAXICARE-ACCREDITED DENTAL CLINIC,"<Point><coordinates>120.935249,14.329050,0.000000</coordinates></Point>",
880000000002024,SAGRADA FAMILIA HOSPITAL,"205 TANGOS, BALIUAG, BULACAN, PHILIPPINES",BULACAN,REGION 3,MAXICARE-ACCREDITED HOSPITAL,"<Point><coordinates>120.935768,14.421729,0.000000</coordinates></Point>",
880000000002937,C. CASTILLO LIBRON DENTAL CLINIC - DON P. CAMPOS AVE.,"2ND FLOOR, RCVJ BLDG., DON P. CAMPOS AVE. DASMARIÑAS CAVITE, DASMARIÑAS, CAVITE, PHILIPPINES",CAVITE,REGION 4-A,MAXICARE-ACCREDITED DENTAL CLINIC,"<Point><coordinates>120.937714,14.323291,0.000000</coordinates></Point>",
880000000009242,ASIA MEDIC DIAGNOSTIC & SPECIALTY CENTER INC.,"E. AGUINALDO HIGHWAY, ANABU II, IMUS, CAVITE, PHILIPPINES",CAVITE,REGION 4-A,MAXICARE-ACCREDITED CLINIC,"<Point><coordinates>120.937897,14.373282,0.000000</coordinates></Point>",
880000000013933,C. CASTILLO LIBRON DENTAL CLINIC - CAMERINO AVE.,"G/F UNIT B GEMCRAFT BLDG. CAMERINO AVE. DASMARIÑAS CAVITE 4114 DASMARIÑAS CITY, DASMARIÑAS, CAVITE, PHILIPPINES",CAVITE,REGION 4-A,MAXICARE-ACCREDITED DENTAL CLINIC,"<Point><coordinates>120.938164,14.328717,0.000000</coordinates></Point>",
880000000013316,IMUS DENTAL CARE CENTER,"UNIT-C MYRO BLDG. AGUINALDO HIWAY, TANZANG LUMA,, IMUS, CAVITE, PHILIPPINES",CAVITE,REGION 4-A,MAXICARE-ACCREDITED DENTAL CLINIC,"<Point><coordinates>120.942436,14.422960,0.000000</coordinates></Point>",
880000000006027,DE LA SALLE UNIVERSITY MEDICAL CENTER,"PASONG LAWIN, DASMARIÑAS, CAVITE, PHILIPPINES",CAVITE,REGION 4-A,MAXICARE-ACCREDITED HOSPITAL,"<Point><coordinates>120.943459,14.327085,0.000000</coordinates></Point>",
880000000009300,MEDICAL CENTER IMUS,"DIVERSION ROAD, PALICO IV, IMUS, CAVITE, PHILIPPINES",CAVITE,REGION 4-A,MAXICARE-ACCREDITED HOSPITAL,"<Point><coordinates>120.946434,14.426233,0.000000</coordinates></Point>",
880000000013307,WONDER CARE DENTAL CLINIC,"UNIT 2 LAS RAMBLAS BUILDING 105 GEN. EVANGELISTA ST. TALABA I, BACOOR CAVITE, BACOOR, CAVITE, BACOOR, CAVITE, PHILIPPINES",CAVITE,REGION 4-A,MAXICARE-ACCREDITED DENTAL CLINIC,"<Point><coordinates>120.948662,14.459781,0.000000</coordinates></Point>",
880000000013188,C. MANGINSAY MEDICO DENTAL CLINIC,"3RD LEVEL ROBINSON DASMARIÑAS  PALA-PALA, CAVITE, , CAVITE, PHILIPPINES",CAVITE,REGION 4-A,MAXICARE-ACCREDITED DENTAL CLINIC,"<Point><coordinates>120.954010,14.299973,0.000000</coordinates></Point>",
880000000012124,ASIA MEDIC FAMILY HOSPITAL AND MEDICAL CENTER,"OLD PALAPALA ROAD, SAMPALOC 1, DASMARIÑAS, CAVITE, PHILIPPINES",CAVITE,REGION 4-A,MAXICARE-ACCREDITED HOSPITAL,"<Point><coordinates>120.956573,14.298980,0.000000</coordinates></Point>",
880000000013371,DADOR-ONG DENTAL CLINIC,"SUITE 212 MARAUDI BLDG. NIOG HIGHWAY COR. AGUINALDO,, BACOOR, CAVITE, PHILIPPINES",CAVITE,REGION 4-A,MAXICARE-ACCREDITED DENTAL CLINIC,"<Point><coordinates>120.957886,14.454441,0.000000</coordinates></Point>",
880000000013436,DENTALIFE DENTAL CLINIC,"48 EVANGELISTA ST. TALABA 5, BACOOR CAVITE, BACOOR, CAVITE, BACOOR, CAVITE, PHILIPPINES",CAVITE,REGION 4-A,MAXICARE-ACCREDITED DENTAL CLINIC,"<Point><coordinates>120.959412,14.462067,0.000000</coordinates></Point>",
880000000002223,"ST. DOMINIC MEDICAL CENTER, INC.","G. AGUINALDO HIGHWAY, TALABA, BACOOR, CAVITE, PHILIPPINES",CAVITE,REGION 4-A,MAXICARE-ACCREDITED HOSPITAL,"<Point><coordinates>120.960228,14.458896,0.000000</coordinates></Point>",
880000000013184,A. BADLIS ESGUERRA DENTAL CLINIC,"G/F CATIMBUHAN BLDG.. WET & DRY MARKET BRGY. STA LUCIA DBB1 DASMARIÑAS CAVITE, DASMARIÑAS, CAVITE, PHILIPPINES",CAVITE,REGION 4-A,MAXICARE-ACCREDITED DENTAL CLINIC,"<Point><coordinates>120.960503,14.328280,0.000000</coordinates></Point>",
880000000014801,MARITES RIVERA- DE CASTRO DENTAL CLINIC- TAGAYTAY,"TAGAYTAY HOSPITAL AND MEDICAL CENTER, E. AGUINALDO HIGHWAY, SILANG, CROSSING EAST, TAGAYTAY CITY, CAVITE, PHILIPPINES",CAVITE,REGION 4-A,MAXICARE-ACCREDITED DENTAL CLINIC,"<Point><coordinates>120.962029,14.115353,0.000000</coordinates></Point>",
880000000006038,MARY JOHNSTON HOSPITAL,"1221 JUAN NOLASCO STREET TONDO, MANILA CITY, METRO MANILA, PHILIPPINES",METRO MANILA,NCR,MAXICARE-ACCREDITED HOSPITAL,"<Point><coordinates>120.966148,14.609005,0.000000</coordinates></Point>",
880000000001872,PREMIERE MEDICAL CENTER,"MAHARLIKA HIGHWAY DAAN SARILE, CABANATUAN CITY, NUEVA ECIJA, PHILIPPINES",NUEVA ECIJA,REGION 3,MAXICARE-ACCREDITED HOSPITAL,"<Point><coordinates>120.967049,15.508738,0.000000</coordinates></Point>",
880000000013793,ALPAS DENTAL CARE CENTER,"B2 L9 ADDAS GREENFIELDS COMM'L MOLINO BLVD., MAMBOG 4,, BACOOR, CAVITE, PHILIPPINES",CAVITE,REGION 4-A,MAXICARE-ACCREDITED DENTAL CLINIC,"<Point><coordinates>120.967735,14.412673,0.000000</coordinates></Point>",
880000000013794,HOLY CHILD DENTAL CLINIC,"25 AVENIDA ST., PH- 2A, BAYAHANG PAG-ASA MOLINO 5,, BACOOR, CAVITE, PHILIPPINES",CAVITE,REGION 4-A,MAXICARE-ACCREDITED DENTAL CLINIC,"<Point><coordinates>120.968002,14.395953,0.000000</coordinates></Point>",
880000000013633,L.M. LIM DENTAL CLINIC,"229 PENARUBIA ST. BINONDO MANILA, MANILA CITY, METRO MANILA, PHILIPPINES",METRO MANILA,NCR,MAXICARE-ACCREDITED DENTAL CLINIC,"<Point><coordinates>120.968033,14.599988,0.000000</coordinates></Point>",
880000000010737,"CHRIST THE KING GENERAL HOSPITAL, INC","130 REAL ST., PAMPLONA I, LAS PIÑAS CITY, METRO MANILA, PHILIPPINES",METRO MANILA,NCR,MAXICARE-ACCREDITED HOSPITAL,"<Point><coordinates>120.970009,14.458872,0.000000</coordinates></Point>",
880000000014551,METRO SPECIALISTS DIAGNOSTIC AND SURGICENTER,"2/F MGC VERANDA 31 GOVERNOR PASCUAL AVENUE, TINAJEROS, MALABON CITY, METRO MANILA, PHILIPPINES",METRO MANILA,NCR,MAXICARE-ACCREDITED CLINIC,"<Point><coordinates>120.970322,14.669871,0.000000</coordinates></Point>",
880000000002942,STA. CLARA DE MONTEFALCO MEDICAL CENTER,"KM. 20 NORTH DIVERSION SERVICE RD., MALHACAN, MEYCAUAYAN, BULACAN, PHILIPPINES",BULACAN,REGION 3,MAXICARE-ACCREDITED HOSPITAL,"<Point><coordinates>120.971642,14.748852,0.000000</coordinates></Point>",
880000000013286,DRA ME YING HO DENTAL CLINIC,"UNIT 647, 168 SHOPPING MALL, 6TH FLOOR, PHASE 5, SOLER ST., BINONDO, MANILA CITY, METRO MANILA, PHILIPPINES",METRO MANILA,NCR,MAXICARE-ACCREDITED DENTAL CLINIC,"<Point><coordinates>120.971893,14.604723,0.000000</coordinates></Point>",
880000000013855,CASTILLO ORTHO - DENTAL CLINIC,"UNIT Q 2/F AZUCENA ARCADE BLDG. 255 REAL ST. (ZAPOTE-ALABANG RD.) COR. GREENVIEW VILLAGE, PAMPLONA, LAS PIÑAS CITY, METRO MANILA, PHILIPPINES",METRO MANILA,NCR,MAXICARE-ACCREDITED DENTAL CLINIC,"<Point><coordinates>120.974403,14.454296,0.000000</coordinates></Point>",
880000000014403,"BDM IMAGING CENTER, INC.-CALOOCAN","UNIT 16 #242 C3 RD. COR., A.MABINI ST., SAMPALUKAN, KALOOKAN CITY, METRO MANILA, PHILIPPINES",METRO MANILA,NCR,MAXICARE-ACCREDITED CLINIC,"<Point><coordinates>120.974602,14.644913,0.000000</coordinates></Point>",
880000000013372,DR. ELLEN SANTA CRUZ-LEE DENTAL CLINIC,"53 B AVENIDA RIZAL P2A, BPS, MOLINO 5, BACOOR CAVITE, BACOOR, CAVITE, PHILIPPINES",CAVITE,REGION 4-A,MAXICARE-ACCREDITED DENTAL CLINIC,"<Point><coordinates>120.975418,14.398229,0.000000</coordinates></Point>",
880000000001456,MARTINEZ MEMORIAL HOSPITAL,"198 A. MABINI ST., MAYPAJO, KALOOKAN CITY, METRO MANILA, PHILIPPINES",METRO MANILA,NCR,MAXICARE-ACCREDITED HOSPITAL,"<Point><coordinates>120.975853,14.638441,0.000000</coordinates></Point>",
880000000002771,MOLINO DOCTORS HOSPITAL,"NATIONAL RD. MOLINO II, BACOOR, CAVITE, PHILIPPINES",CAVITE,REGION 4-A,MAXICARE-ACCREDITED HOSPITAL,"<Point><coordinates>120.976120,14.410514,0.000000</coordinates></Point>",
880000000002389,WESLEYAN UNIVERSITY MEDICAL CENTER,"TANDANG SORA ST. MABINI EXT, CABANATUAN CITY, NUEVA ECIJA, PHILIPPINES",NUEVA ECIJA,REGION 3,MAXICARE-ACCREDITED HOSPITAL,"<Point><coordinates>120.976250,15.482292,0.000000</coordinates></Point>",
880000000013508,ALDUEZA DENTAL AND OPTICAL CLINIC - MOLINO II,"#70 UNIT 5 DAHLZZETTE PLAT 2 KAUNLARAN SUBD. I MOLINO II, BACOOR, CAVITE, PHILIPPINES",CAVITE,REGION 4-A,MAXICARE-ACCREDITED DENTAL CLINIC,"<Point><coordinates>120.977531,14.408963,0.000000</coordinates></Point>",
880000000000082,AMISOLA MATERNITY HOSPITAL,"1068 HERMOSA ST., MANUGUIT, TONDO, MANILA CITY, METRO MANILA, PHILIPPINES",METRO MANILA,NCR,MAXICARE-ACCREDITED HOSPITAL,"<Point><coordinates>120.978050,14.632851,0.000000</coordinates></Point>",
880000000014348,CALDOZA DENTAL CLINIC,"901-B VICTORIA BUILDING 429 UNITED NATIONS AVENUE ERMITA, MANILA CITY, METRO MANILA, PHILIPPINES",METRO MANILA,NCR,MAXICARE-ACCREDITED DENTAL CLINIC,"<Point><coordinates>120.978233,14.579212,0.000000</coordinates></Point>",
880000000006044,METROPOLITAN MEDICAL CENTER,"1357 GUILLERMO MASANGKAY ST. STA CRUZ., MANILA CITY, METRO MANILA, PHILIPPINES",METRO MANILA,NCR,MAXICARE-ACCREDITED HOSPITAL,"<Point><coordinates>120.978348,14.609452,0.000000</coordinates></Point>",
880000000014343,SMILE R' US DENTAL CENTRE,"2ND FLR., STARMALL LAS PIÑAS, C.V STARR AVE., PHILAM VILL., PAMPLONA DOS, LAS PIÑAS CITY, METRO MANILA, PHILIPPINES",METRO MANILA,NCR,MAXICARE-ACCREDITED DENTAL CLINIC,"<Point><coordinates>120.978462,14.450047,0.000000</coordinates></Point>",
880000000013288,MA. THESZ PERFECT SMILE DENTAL CLINIC,"1052 DOMINADOR GOMEZ ST. B.O. TONDO MANILA, MANILA CITY, METRO MANILA, PHILIPPINES",METRO MANILA,NCR,MAXICARE-ACCREDITED DENTAL CLINIC,"<Point><coordinates>120.979462,14.637824,0.000000</coordinates></Point>",
880000000006085,METRO SOUTH MEDICAL CENTER,"NATIONAL RD. MOLINO IV, BACOOR, CAVITE, PHILIPPINES",CAVITE,REGION 4-A,MAXICARE-ACCREDITED HOSPITAL,"<Point><coordinates>120.979752,14.373682,0.000000</coordinates></Point>",
880000000014924,MASANGCAY DENTAL CLINIC,"489 MOLINO ROAD MOLINO 4, BACOOR, CAVITE, PHILIPPINES",CAVITE,REGION 4-A,MAXICARE-ACCREDITED DENTAL CLINIC,"<Point><coordinates>120.980095,14.372975,0.000000</coordinates></Point>",
880000000013295,KALAW DENTAL CLINIC,"4TH FLOOR TRINITY BLDG. 636 TM KALAW ST. SUITE 205 SAN LUIS BLDG. ERMITA, MANILA CITY, METRO MANILA, PHILIPPINES",METRO MANILA,NCR,MAXICARE-ACCREDITED DENTAL CLINIC,"<Point><coordinates>120.980148,14.580936,0.000000</coordinates></Point>",
880000000014559,SOFITEL DENTAL CLINIC,"RM 160 FIRST FLOOR, SOFITEL PHILIPPINE PLAZA HOTEL, CCP COMPLEX, ROXAS BLVD., PASAY CITY, METRO MANILA, PHILIPPINES",METRO MANILA,NCR,MAXICARE-ACCREDITED DENTAL CLINIC,"<Point><coordinates>120.980331,14.553169,0.000000</coordinates></Point>",
880000000002215,ST. CECILIA POLYCLINIC,"3/F METROBANK BLDG., 1149 A. MABINI ST., ERMITA, MANILA CITY, METRO MANILA, PHILIPPINES",METRO MANILA,NCR,MAXICARE-ACCREDITED CLINIC,"<Point><coordinates>120.980461,14.579111,0.000000</coordinates></Point>",
880000000000868,FATIMA UNIVERSITY MEDICAL CENTER CORP.,"120 MCARTHUR HIGHWAY, VALENZUELA CITY, METRO MANILA, PHILIPPINES",METRO MANILA,NCR,MAXICARE-ACCREDITED HOSPITAL,"<Point><coordinates>120.980507,14.678081,0.000000</coordinates></Point>",
880000000014351,DR. RICHARD F. LIAO DENTAL CLINIC,"RM. 507 M.F. TIAOQUI BLDG. PLAZA STA. CRUZ, MANILA CITY, METRO MANILA, PHILIPPINES",METRO MANILA,NCR,MAXICARE-ACCREDITED DENTAL CLINIC,"<Point><coordinates>120.980530,14.598680,0.000000</coordinates></Point>",
880000000000810,EMMANUEL HOSPITAL,"NORBERTO COR. BUECAMINO ST., SAN JOSE, SAN MIGUEL, BULACAN, PHILIPPINES",BULACAN,REGION 3,MAXICARE-ACCREDITED HOSPITAL,"<Point><coordinates>120.980789,15.145354,0.000000</coordinates></Point>",
880000000012660,I-HEALTH MULTISPECIALIST CLINIC,"SM CENTER LAS PIÑAS, ALABANG ZAPOTE ROAD, PAMPLONA 2, LAS PIÑAS CITY, METRO MANILA, PHILIPPINES",METRO MANILA,NCR,MAXICARE-ACCREDITED CLINIC,"<Point><coordinates>120.980858,14.449117,0.000000</coordinates></Point>",
880000000001709,OUR LADY OF GRACE HOSPITAL,"8TH AVENUE, CORNER F. ROXAS STREET, KALOOKAN CITY, METRO MANILA, PHILIPPINES",METRO MANILA,NCR,MAXICARE-ACCREDITED HOSPITAL,"<Point><coordinates>120.981316,14.648938,0.000000</coordinates></Point>",
880000000013373,GALVEZ DENTAL CLINIC,"UNIT-3 SHOPHOUSE MOLINO RD. MOLINO-4, BACOOR, CAVITE, BACOOR, CAVITE, BACOOR, CAVITE, PHILIPPINES",CAVITE,REGION 4-A,MAXICARE-ACCREDITED DENTAL CLINIC,"<Point><coordinates>120.981361,14.368423,0.000000</coordinates></Point>",
880000000012999,RMAF CLINIC & DIAGNOSTIC SERVICES,"1680 ROXAS BLVD. CORNER DR. J QUINTOS SR. STREET, MANILA CITY, METRO MANILA, PHILIPPINES",METRO MANILA,NCR,MAXICARE-ACCREDITED CLINIC,"<Point><coordinates>120.982224,14.571871,0.000000</coordinates></Point>",
880000000009095,JED DIAGNOSTIC CENTER,"3RD FLOOR GODINA TOWER, 350 AROCEROS, ERMITA, MANILA CITY, METRO MANILA, PHILIPPINES",METRO MANILA,NCR,MAXICARE-ACCREDITED CLINIC,"<Point><coordinates>120.982361,14.589123,0.000000</coordinates></Point>",
880000000000354,CALALANG GENERAL HOSPITAL,"16 R. VALENCIA ST., VALENZUELA CITY, METRO MANILA, PHILIPPINES",METRO MANILA,NCR,MAXICARE-ACCREDITED HOSPITAL,"<Point><coordinates>120.982491,14.672565,0.000000</coordinates></Point>",
880000000006036,MANILA DOCTORS HOSPITAL,"667 UNITED NATIONS AVENUE, MALATE, MANILA CITY, METRO MANILA, PHILIPPINES",METRO MANILA,NCR,MAXICARE-ACCREDITED HOSPITAL,"<Point><coordinates>120.982895,14.581849,0.000000</coordinates></Point>",
880000000009167,HEALTH POINT MEDICAL CLINICS & DIAGNOSTIC CENTER,"577 PADRE FAURA ST. ERMITA, MANILA CITY, METRO MANILA, PHILIPPINES",METRO MANILA,NCR,MAXICARE-ACCREDITED CLINIC,"<Point><coordinates>120.983063,14.578397,0.000000</coordinates></Point>",
880000000014532,LABEXPRESS MEDICAL DIAGNOSTICS,"308 F. OCAMPO ST., LAS PIÑAS CITY, METRO MANILA, PHILIPPINES",METRO MANILA,NCR,MAXICARE-ACCREDITED CLINIC,"<Point><coordinates>120.983170,14.448919,0.000000</coordinates></Point>",
880000000013289,CLINICA DE MANILA DENTAL CENTER,"1111 NATIVIDAD A. LOPEZ ST. ERMITA MANILA, MANILA CITY, METRO MANILA, PHILIPPINES",METRO MANILA,NCR,MAXICARE-ACCREDITED DENTAL CLINIC,"<Point><coordinates>120.983459,14.590706,0.000000</coordinates></Point>",
880000000009759,ST. GEORGE CLINICAL LABORATORY SERVICES,"2/F AURELIO BLDG., RIZAL AVE. EXTENSION, KALOOKAN CITY, METRO MANILA, PHILIPPINES",METRO MANILA,NCR,MAXICARE-ACCREDITED CLINIC,"<Point><coordinates>120.983505,14.653007,0.000000</coordinates></Point>",
880000000002103,SANCTISSIMO ROSARIO GENERAL HOSPITAL,"#2 ESPIRITU STREET MARULAS, VALENZUELA CITY, METRO MANILA, PHILIPPINES",METRO MANILA,NCR,MAXICARE-ACCREDITED HOSPITAL,"<Point><coordinates>120.984283,14.675100,0.000000</coordinates></Point>",
880000000009754,MANILA VISION CORRECTION CENTER,"LEVEL 3, SPACE 063, ROBINSONS PLACE M. ADRIATICO ST., ERMITA, MANILA CITY, METRO MANILA, PHILIPPINES",METRO MANILA,NCR,MAXICARE-ACCREDITED CLINIC,"<Point><coordinates>120.984398,14.575313,0.000000</coordinates></Point>",
880000000014060,DIVINE DENTAL CLINIC,"UNIT 13 SOMKID BLDG. ARIA COR. CATERPILLAR ST. STA. CECILIA RD., LAS PIÑAS CITY, METRO MANILA, PHILIPPINES",METRO MANILA,NCR,MAXICARE-ACCREDITED DENTAL CLINIC,"<Point><coordinates>120.984436,14.445268,0.000000</coordinates></Point>",
880000000014149,LAND AND SEAIRE DENTAL CLINIC,"5TH FLOOR SAVEMORE (FORMERLY MASAGANA SUPERSTORE) UN AVENUE COR. TM KALAW TAFT AVE. BRGY. 666 ZONE 72 ERMITA MANILA, MANILA CITY, METRO MANILA, PHILIPPINES",METRO MANILA,NCR,MAXICARE-ACCREDITED DENTAL CLINIC,"<Point><coordinates>120.984871,14.582836,0.000000</coordinates></Point>",
880000000006040,MEDICAL CENTER MANILA,"1125 GEN. LUNA STREET ERMITA, MANILA CITY, METRO MANILA, PHILIPPINES",METRO MANILA,NCR,MAXICARE-ACCREDITED HOSPITAL,"<Point><coordinates>120.985535,14.582405,0.000000</coordinates></Point>",
880000000014057,UNIVERSITY PHYSICIANS MEDICAL CENTER,"FACULTY MEDICAL ARTS BUILDING (OLD DISCREPANCY BLDG.) PGH COMPOUND, TAFT AVE, MANILA CITY, METRO MANILA, PHILIPPINES",METRO MANILA,NCR,MAXICARE-ACCREDITED CLINIC,"<Point><coordinates>120.986023,14.577385,0.000000</coordinates></Point>",
880000000012524,TMC-FRC SPORTS PERFORMANCE AND PHYSICAL MEDICINE CENTER,"G/F TECHNOLOGY BLDG., FAR EASTERN UNIVERSITY, NICANOR REYES ST., SAMPALOC, MANILA CITY, METRO MANILA, PHILIPPINES",METRO MANILA,NCR,MAXICARE-ACCREDITED CLINIC,"<Point><coordinates>120.986702,14.603669,0.000000</coordinates></Point>",
880000000006024,CHINESE GENERAL HOSPITAL & MEDICAL CENTER,"286 BLUMENTRITT STREET STA. CRUZ, MANILA CITY, METRO MANILA, PHILIPPINES",METRO MANILA,NCR,MAXICARE-ACCREDITED HOSPITAL,"<Point><coordinates>120.987839,14.626057,0.000000</coordinates></Point>",
880000000001530,MEDISERV INC.,"7TH FLOOR PERPETUAL HELP HOSPITAL, LAONG LAAN SAMPALOC, MANILA CITY, METRO MANILA, PHILIPPINES",METRO MANILA,NCR,MAXICARE-ACCREDITED CLINIC,"<Point><coordinates>120.988205,14.614238,0.000000</coordinates></Point>",
880000000014410,JOHANNS P. LEE VILLANUEVA DENTAL CLINIC,"CHINESE GENERAL HOSPITAL BLUMENTRITT STA. CRUZ, MANILA CITY, METRO MANILA, PHILIPPINES",METRO MANILA,NCR,MAXICARE-ACCREDITED DENTAL CLINIC,"<Point><coordinates>120.988571,14.625611,0.000000</coordinates></Point>",
880000000012521,ALIF MEDICAL AND DIAGNOSTIC CLINIC CORPORATION,"3RD AND 4TH FLOORS, AGONCILLO BLSG., 1580 PEDRO GIL CORNER TAFT AVENUE, MANILA CITY, METRO MANILA, PHILIPPINES",METRO MANILA,NCR,MAXICARE-ACCREDITED CLINIC,"<Point><coordinates>120.988663,14.576087,0.000000</coordinates></Point>",
880000000002271,ST. JUDE HOSPITAL AND MEDICAL CENTER,"DON QUIJOTE ST., COR DIMASALANG ST., SAMPALOC, MANILA CITY, METRO MANILA, PHILIPPINES",METRO MANILA,NCR,MAXICARE-ACCREDITED HOSPITAL,"<Point><coordinates>120.988930,14.615748,0.000000</coordinates></Point>",
880000000013455,SEAMED MEDICAL CLINIC,"G. TOLENTINO ST., SAMPALOC, MANILA CITY, METRO MANILA, PHILIPPINES",METRO MANILA,NCR,MAXICARE-ACCREDITED CLINIC,"<Point><coordinates>120.989372,14.605854,0.000000</coordinates></Point>",
880000000013986,GROOVY SMILE DENTAL CLINIC,"954 QUIRINO AVE., BRGY. DON GALO PARAÑAQUE CITY, PARAÑAQUE CITY, METRO MANILA, PHILIPPINES",METRO MANILA,NCR,MAXICARE-ACCREDITED DENTAL CLINIC,"<Point><coordinates>120.989525,14.496903,0.000000</coordinates></Point>",
880000000013762,ANA LYNN C. SANTOS D.M.D. DENTAL CLINIC,"7261 A. BONIFACIO ST. SAN DIONISIO, PARAÑAQUE, PARAÑAQUE CITY, METRO MANILA, PHILIPPINES",METRO MANILA,NCR,MAXICARE-ACCREDITED DENTAL CLINIC,"<Point><coordinates>120.990211,14.495569,0.000000</coordinates></Point>",
880000000002980,BASA DENTAL CLINIC - LAS PINAS,"254 S MARQUEZ ST. PHASE 4 GATCHALIAN SUBD. LAS PINAS CITY, LAS PIÑAS CITY, METRO MANILA, PHILIPPINES",METRO MANILA,NCR,MAXICARE-ACCREDITED DENTAL CLINIC,"<Point><coordinates>120.990379,14.472674,0.000000</coordinates></Point>",
880000000014556,VILLAREAL ROCO DENTAL CLINIC,"CENTURY PARK HOTEL, VITO CRUZ, MANILA CITY, METRO MANILA, PHILIPPINES",METRO MANILA,NCR,MAXICARE-ACCREDITED DENTAL CLINIC,"<Point><coordinates>120.990822,14.561227,0.000000</coordinates></Point>",
880000000009298,HEART OF JESUS HOSPITAL,"SOBREPENA DRIVE, SAN JOSE CITY, NUEVA ECIJA, PHILIPPINES",NUEVA ECIJA,REGION 3,MAXICARE-ACCREDITED HOSPITAL,"<Point><coordinates>120.991035,15.795387,0.000000</coordinates></Point>",
880000000013426,ATIENZA DENTAL CLINIC,"20 MSIBAY ST. BF RESORT VILLAGE LAS PIÑAS, LAS PIÑAS CITY, METRO MANILA, PHILIPPINES",METRO MANILA,NCR,MAXICARE-ACCREDITED DENTAL CLINIC,"<Point><coordinates>120.991692,14.439844,0.000000</coordinates></Point>",
880000000013204,EDGARDO PASCUA DENTAL CLINIC,"2035 FB HARRISON COR. BUENDIA PASAY CITY, PASAY CITY, METRO MANILA, PHILIPPINES",METRO MANILA,NCR,MAXICARE-ACCREDITED DENTAL CLINIC,"<Point><coordinates>120.991837,14.553218,0.000000</coordinates></Point>",
880000000001176,JOHN PAUL HOSPITAL,"26 MARIANO PONCE ST. TIRAD PASS, KALOOKAN CITY, METRO MANILA, PHILIPPINES",METRO MANILA,NCR,MAXICARE-ACCREDITED HOSPITAL,"<Point><coordinates>120.991936,14.659713,0.000000</coordinates></Point>",
880000000013862,TOOTHCARE DENTAL CLINIC,"X- SITE ARCADE BF RESORT DRIVE BF RESORT VILLAGE,, LAS PIÑAS CITY, METRO MANILA, PHILIPPINES",METRO MANILA,NCR,MAXICARE-ACCREDITED DENTAL CLINIC,"<Point><coordinates>120.992516,14.443210,0.000000</coordinates></Point>",
880000000014612,FAMILY ACCESS HEALTH GROUP,"SIMOUN CORNER IBARRA STREETS, SAMPALOC, MANILA CITY, METRO MANILA, PHILIPPINES",METRO MANILA,NCR,MAXICARE-ACCREDITED CLINIC,"<Point><coordinates>120.992958,14.621832,0.000000</coordinates></Point>",
880000000009388,HEARTLINE MEDICAL DIAGNOSTICS,"UNIT 115 CITYLAND TOWER 2, PABLO OCAMPO SR. AVE., MALATE, MANILA CITY, METRO MANILA, PHILIPPINES",METRO MANILA,NCR,MAXICARE-ACCREDITED CLINIC,"<Point><coordinates>120.993347,14.560812,0.000000</coordinates></Point>",
880000000014379,AYAP-RUBIO DENTAL CLINIC CO.,"4182 TOMAS CLAUDIO STREET BACLARAN,, PARAÑAQUE CITY, METRO MANILA, PHILIPPINES",METRO MANILA,NCR,MAXICARE-ACCREDITED DENTAL CLINIC,"<Point><coordinates>120.993820,14.526131,0.000000</coordinates></Point>",
880000000014611,HEARTLAND MEDICAL DIAGNOSTIC CENTER,"1717 ANGEL LINAO COR JULIO NAKPIL ST., PACO, MANILA CITY, METRO MANILA, PHILIPPINES",METRO MANILA,NCR,MOBILE PROVIDER,"<Point><coordinates>120.994011,14.575884,0.000000</coordinates></Point>",
880000000012679,MAYON CLINICAL LABORATORY & MEDICAL SERVICES,"857 LOT 3 MAYON ST., BRGY. AMORANTO, QUEZON CITY, METRO MANILA, PHILIPPINES",METRO MANILA,NCR,MAXICARE-ACCREDITED CLINIC,"<Point><coordinates>120.994072,14.635254,0.000000</coordinates></Point>",
880000000010521,E. ZARATE HOSPITAL,"16 J. AGUILAR AVENUE  TALON, LAS PIÑAS CITY, METRO MANILA, PHILIPPINES",METRO MANILA,NCR,MAXICARE-ACCREDITED HOSPITAL,"<Point><coordinates>120.994186,14.446779,0.000000</coordinates></Point>",
880000000013205,TOWER DENTAL CLINIC,"LGF H TORRE LORENZO COND, 2587 P.OCAMPO ST. COR TAFT AVE. MALATE MANILA, MANILA CITY, METRO MANILA, PHILIPPINES",METRO MANILA,NCR,MAXICARE-ACCREDITED DENTAL CLINIC,"<Point><coordinates>120.994232,14.562650,0.000000</coordinates></Point>",
880000000013335,AYT DENTAL CLINIC,"2464 A.F.B HARRISON ST., PASAY CITY, METRO MANILA, PHILIPPINES",METRO MANILA,NCR,MAXICARE-ACCREDITED DENTAL CLINIC,"<Point><coordinates>120.994354,14.544508,0.000000</coordinates></Point>",
880000000010858,THERAMEDICA HEALTH SYSTEMS INCORPORATED,"GOVERNOR’S DRIVE BANABA, SILANG, CAVITE, PHILIPPINES",CAVITE,REGION 4-A,MAXICARE-ACCREDITED CLINIC,"<Point><coordinates>120.995705,14.284388,0.000000</coordinates></Point>",
880000000009262,LAKAMBINI DIAGNOSTIC CENTER,"1991 UNIT E & F WARDLEY BUILDING., TAFT AVENUE, PASAY CITY, METRO MANILA, PHILIPPINES",METRO MANILA,NCR,MAXICARE-ACCREDITED CLINIC,"<Point><coordinates>120.996559,14.555817,0.000000</coordinates></Point>",
880000000009262,LAKAMBINI DIAGNOSTIC CENTER,"1991-A UNIT WARDLEY BLDG TAFT AVE., PASAY CITY, METRO MANILA, PHILIPPINES",METRO MANILA,NCR,MAXICARE-ACCREDITED DENTAL CLINIC,"<Point><coordinates>120.996559,14.555817,0.000000</coordinates></Point>",
880000000006050,OLIVAREZ GENERAL HOSPITAL,"DR. A. SANTOS AVE., SUCAT ROAD, PARAÑAQUE CITY, METRO MANILA, PHILIPPINES",METRO MANILA,NCR,MAXICARE-ACCREDITED HOSPITAL,"<Point><coordinates>120.996597,14.478439,0.000000</coordinates></Point>",
880000000001260,ALABANG MEDICAL CLINIC-TALON,"ALABANG-ZAPOTE ROAD CORNER PELAYO VILLAGE, TALON, LAS PIÑAS CITY, METRO MANILA, PHILIPPINES",METRO MANILA,NCR,MAXICARE-ACCREDITED HOSPITAL,"<Point><coordinates>120.996971,14.442826,0.000000</coordinates></Point>",
880000000012125,GOLDEN ACRES DOCTORS HOSPITAL,"B5 L5 CRYSTAL ST., GOLDEN ACRES SUBDIVISION TALON 5, LAS PIÑAS CITY, METRO MANILA, PHILIPPINES",METRO MANILA,NCR,MAXICARE-ACCREDITED HOSPITAL,"<Point><coordinates>120.998154,14.419167,0.000000</coordinates></Point>",
880000000013493,AVMF DENTAL ALLEY CLINIC,"GF-MMS 12 PASAY CITY MALL COR. ARNAIZ AVE.TAFT. AVE PASAY CITY, PASAY CITY, METRO MANILA, PHILIPPINES",METRO MANILA,NCR,MAXICARE-ACCREDITED DENTAL CLINIC,"<Point><coordinates>120.998383,14.547208,0.000000</coordinates></Point>",
880000000014649,JM DENTAL CLINIC,"#11 MIRASOL ST. PHASE 2 C.A.A, LAS PIÑAS CITY, METRO MANILA, PHILIPPINES",METRO MANILA,NCR,MAXICARE-ACCREDITED DENTAL CLINIC,"<Point><coordinates>120.998528,14.461693,0.000000</coordinates></Point>",
880000000000626,DE OCAMPO MEMORIAL MEDICAL CENTER,"2921 NAGTAHAN STREET STA. MESA, MANILA CITY, METRO MANILA, PHILIPPINES",METRO MANILA,NCR,MAXICARE-ACCREDITED HOSPITAL,"<Point><coordinates>120.999451,14.600108,0.000000</coordinates></Point>",
880000000014019,DENTAL SPOT CLINIC,"3/F SAVERS CENTER BLDG 245 EDSA EXT COR TAFT AVENUE, PASAY CITY, METRO MANILA, PHILIPPINES",METRO MANILA,NCR,MAXICARE-ACCREDITED DENTAL CLINIC,"<Point><coordinates>120.999870,14.537888,0.000000</coordinates></Point>",
880000000009757,SAFEWAY DIAGNOSTICS & MEDICAL CLINIC,"2972 CENTILLON BLDG., R. MAGSAYSAY BLVD. STA. MESA, MANILA CITY, METRO MANILA, PHILIPPINES",METRO MANILA,NCR,MAXICARE-ACCREDITED CLINIC,"<Point><coordinates>121.000587,14.600928,0.000000</coordinates></Point>",
880000000002222,ST. CLARE'S MEDICAL CENTER,"1838 DIAN ST. PALANAN, MAKATI CITY, METRO MANILA, PHILIPPINES",METRO MANILA,NCR,MAXICARE-ACCREDITED HOSPITAL,"<Point><coordinates>121.001282,14.563013,0.000000</coordinates></Point>",
880000000013013,HPD INTERNATIONAL,"674 N.S. AMORANTO SR., AVE., QUEZON CITY, METRO MANILA, PHILIPPINES",METRO MANILA,NCR,MAXICARE-ACCREDITED CLINIC,"<Point><coordinates>121.002205,14.632908,0.000000</coordinates></Point>",
880000000009389,ASIA PACIFIC MEDICAL & DIAGNOSTICS (APMD) INC,"3RD FLOOR ALSCOPHIL BLDG., 2053 EDISON ST, MAKATI CITY, METRO MANILA, PHILIPPINES",METRO MANILA,NCR,MAXICARE-ACCREDITED CLINIC,"<Point><coordinates>121.003456,14.553590,0.000000</coordinates></Point>",
880000000014402,"BANAWE DIAGNOSTIC MRI IMAGING CENTER, INC. - BANAWE","426 BANAWE AVE. COR. TIRAD PASS ST., QUEZON CITY, METRO MANILA, PHILIPPINES",METRO MANILA,NCR,MAXICARE-ACCREDITED CLINIC,"<Point><coordinates>121.003960,14.628232,0.000000</coordinates></Point>",
880000000014909,BRUAL DENTAL CLINIC,"#2 SAN SEBASTIAN ST., BAUAN, BATANGAS, PHILIPPINES",BATANGAS,REGION 4-A,MAXICARE-ACCREDITED DENTAL CLINIC,"<Point><coordinates>121.005234,13.790311,0.000000</coordinates></Point>",
880000000009064,LIFEMED CLINICS AND LABORATORY AND DIAGNOSTICS,"#92 BPI BLDG SEN GIL PUYAT AVE, MAKATI CITY, METRO MANILA, PHILIPPINES",METRO MANILA,NCR,MAXICARE-ACCREDITED CLINIC,"<Point><coordinates>121.007095,14.557401,0.000000</coordinates></Point>",
880000000002962,CLINICA TAMESIS MEDICAL CORPORATION,"42 CLINICA TAMESIS BLDG, QUEZON AVENUE, QUEZON CITY, METRO MANILA, PHILIPPINES",METRO MANILA,NCR,MAXICARE-ACCREDITED CLINIC,"<Point><coordinates>121.007286,14.622654,0.000000</coordinates></Point>",
880000000010963,DONICA DIAGNOSTIC & IMAGING SERVICES,"8162-E, DR. A SANTOS AVE (FORMERLY SUCAT ROAD) BRGY SAN DIONISIO (BESIDE LUZ FACIAL CARE), PARAÑAQUE CITY, METRO MANILA, PHILIPPINES",METRO MANILA,NCR,MAXICARE-ACCREDITED CLINIC,"<Point><coordinates>121.008308,14.470004,0.000000</coordinates></Point>",
880000000009456,DR. FE DEL MUNDO MEDICAL CENTER,"11 BANAWE ST. QUEZON CITY, QUEZON CITY, METRO MANILA, PHILIPPINES",METRO MANILA,NCR,MAXICARE-ACCREDITED HOSPITAL,"<Point><coordinates>121.009308,14.620435,0.000000</coordinates></Point>",
880000000014910,ABRUGENA DENTAL CLINIC,"15 A. BUENDIA ST., BAUAN, BATANGAS, PHILIPPINES",BATANGAS,REGION 4-A,MAXICARE-ACCREDITED DENTAL CLINIC,"<Point><coordinates>121.010025,13.792968,0.000000</coordinates></Point>",
880000000014329,WILMAR DIAGNOSTIC AND MEDICAL CLINIC,"UNIT 302 AMV BLDG., 1748 EVANGELISTA ST., MAKATI CITY, METRO MANILA, PHILIPPINES",METRO MANILA,NCR,MAXICARE-ACCREDITED CLINIC,"<Point><coordinates>121.010284,14.550713,0.000000</coordinates></Point>",
880000000013988,DENTISTRY BY DESIGN CO.,"UNIT 4A TRANS-PHIL HOUSE 1177 CHINO ROCES AVENUE COR. BAGTIKAN STS. MAKATI CITY, MAKATI CITY, METRO MANILA, PHILIPPINES",METRO MANILA,NCR,MAXICARE-ACCREDITED DENTAL CLINIC,"<Point><coordinates>121.011208,14.562712,0.000000</coordinates></Point>",
880000000013159,STO. DOMINGO DIAGNOSTIC AND MEDICAL CENTER CORP.,"ROOM 303-304 LM BUILDING, QUEZON AVENUE, QUEZON CITY, METRO MANILA, PHILIPPINES",METRO MANILA,NCR,MOBILE PROVIDER,"<Point><coordinates>121.011276,14.626742,0.000000</coordinates></Point>",
880000000009062,"CASA MEDICA, INC.","UNIT 88 LOWER GROUND FLOOR, SM SOUTHMALL, ALABANG ZAPOTE ROAD, LAS PIÑAS CITY, METRO MANILA, PHILIPPINES",METRO MANILA,NCR,MAXICARE-ACCREDITED CLINIC,"<Point><coordinates>121.011292,14.433641,0.000000</coordinates></Point>",
880000000000491,CHRISTIAN E. CANGCO MEDICAL CLINIC AND LABORATORY,"G/F DON CHINO ROCES AVENUE, SAN ANTONIO VILLAGE, MAKATI CITY, METRO MANILA, PHILIPPINES",METRO MANILA,NCR,MAXICARE-ACCREDITED CLINIC,"<Point><coordinates>121.011314,14.561072,0.000000</coordinates></Point>",
880000000013987,ABASTILLAS DENTAL HEALTH CLINIC,"15 COUNTRY HOMES COOM'L. CTR. LOPEZ ST., DR. A. SANTOS AVE. SUCAT PARAÑAQUE CITY, PARAÑAQUE CITY, METRO MANILA, PHILIPPINES",METRO MANILA,NCR,MAXICARE-ACCREDITED DENTAL CLINIC,"<Point><coordinates>121.011887,14.468352,0.000000</coordinates></Point>",
880000000013016,MEDHAUS MULTI-SPECIALTY & DIAGNOSTIC CLINIC,"719 BULACAN ST., GAGALANGIN, TONDO, MANILA CITY, METRO MANILA, PHILIPPINES",METRO MANILA,NCR,MAXICARE-ACCREDITED CLINIC,"<Point><coordinates>121.012711,14.577893,0.000000</coordinates></Point>",
880000000014648,PAGAYONAN DENTAL CLINIC,"10TH COR. 1ST STS., VILLAMOR AIR BASE, PASAY CITY, METRO MANILA, PHILIPPINES",METRO MANILA,NCR,MAXICARE-ACCREDITED DENTAL CLINIC,"<Point><coordinates>121.013245,14.525368,0.000000</coordinates></Point>",
880000000012113,KONSULTA @ RESULTA MEDICAL CLINIC AND LABORATORY,"2/F NEWTON PLAZA BLDG. #4408 OLD STA. MESA, MANILA CITY, METRO MANILA, PHILIPPINES",METRO MANILA,NCR,MAXICARE-ACCREDITED CLINIC,"<Point><coordinates>121.014282,14.600149,0.000000</coordinates></Point>",
880000000013985,JEFFREY B. CHUA DENTAL CLINIC,"SUITE 1409 14/F MEDICAL PLAZA MAKATI AMORSOLO COR. DELA ROSA STS. LEGAZPI VILLAGE MAKATI CITY, MAKATI CITY, METRO MANILA, PHILIPPINES",METRO MANILA,NCR,MAXICARE-ACCREDITED DENTAL CLINIC,"<Point><coordinates>121.014359,14.558351,0.000000</coordinates></Point>",
880000000014136,DR. RAMON ANTONIO S. SARMIENTO REHABILITATION CLINIC-MAKATI,"UNIT 1706, MEDICAL PLAZA BLDG., AMORSOLO COR. DELA ROSA ST., LEGASPI VILLAGE, MAKATI CITY, METRO MANILA, PHILIPPINES",METRO MANILA,NCR,MAXICARE-ACCREDITED CLINIC,"<Point><coordinates>121.014397,14.558442,0.000000</coordinates></Point>",
880000000009684,6F AESTHETIC AND ANTI AGING CENTER,"1411 MPM MEDICAL PLAZA MAKATI COR. DELA ROSA AND AMORSOLO STS., LEGASPI VILLAGE, MAKATI CITY, METRO MANILA, PHILIPPINES",METRO MANILA,NCR,MAXICARE-ACCREDITED CLINIC,"<Point><coordinates>121.014420,14.558366,0.000000</coordinates></Point>",
880000000009368,ABESAMIS & ASSOCIATES EYE CARE CENTER-MAKATI,"904 MEDICAL PLAZA MAKATI CORNER DELA ROSA & AMORSOLO STREETS, LEGASPI VILLAGE, MAKATI CITY, METRO MANILA, PHILIPPINES",METRO MANILA,NCR,MAXICARE-ACCREDITED CLINIC,"<Point><coordinates>121.014420,14.558377,0.000000</coordinates></Point>",
880000000013199,DR. EDRIC O. CASTILLO DENTAL CLINIC,"SUITE 1807 MEDICAL PLAZA MAKATI AMORSOLO COR. DELA ROSA ST. LEGASPI VILL. MAKATI, MAKATI CITY, METRO MANILA, PHILIPPINES",METRO MANILA,NCR,MAXICARE-ACCREDITED DENTAL CLINIC,"<Point><coordinates>121.014427,14.558206,0.000000</coordinates></Point>",
880000000001263,ALABANG MEDICAL CLINIC-ALMANZA,"2ND FLR. SUSANA ARCADE, LAS PIÑAS CITY, METRO MANILA, PHILIPPINES",METRO MANILA,NCR,MAXICARE-ACCREDITED CLINIC,"<Point><coordinates>121.014885,14.430929,0.000000</coordinates></Point>",
880000000013980,MAD DENTAL REHABILITATION CENTER,"169 CITYLAND 8, 98 SEN. GIL PUYAT AVENUE MAKATI CITY, MAKATI CITY, METRO MANILA, PHILIPPINES",METRO MANILA,NCR,MAXICARE-ACCREDITED DENTAL CLINIC,"<Point><coordinates>121.015282,14.556471,0.000000</coordinates></Point>",
880000000013761,ARTENCJEN DENTAL CLINIC,"11232 A JM LOYOLA ST. MABUHAY, CARMONA, CAVITE, PHILIPPINES",CAVITE,REGION 4-A,MAXICARE-ACCREDITED DENTAL CLINIC,"<Point><coordinates>121.016296,14.293329,0.000000</coordinates></Point>",
880000000002698,BROZAS DENTAL CLINIC,"2/F LURIELL BLDG. DR. A. SANTOS AVE. SUCAT PARAÑAQUE CITY, PARAÑAQUE CITY, METRO MANILA, PHILIPPINES",METRO MANILA,NCR,MAXICARE-ACCREDITED DENTAL CLINIC,"<Point><coordinates>121.016464,14.466015,0.000000</coordinates></Point>",
880000000006028,DE LOS SANTOS STI MEDICAL CENTER,"201 E. RODRIGUEZ SR., QUEZON CITY, METRO MANILA, PHILIPPINES",METRO MANILA,NCR,MAXICARE-ACCREDITED HOSPITAL,"<Point><coordinates>121.017555,14.619818,0.000000</coordinates></Point>",
880000000014378,DR. RENATO C. OBISPO DENTAL CLINIC,"SUITE 503, MEDICAL TOWERS MAKATI, V. RUFINO ST. LEGASPI VILLAGE,, MAKATI CITY, METRO MANILA, PHILIPPINES",METRO MANILA,NCR,MAXICARE-ACCREDITED DENTAL CLINIC,"<Point><coordinates>121.017815,14.557105,0.000000</coordinates></Point>",
880000000014345,CHUGANI DENTAL OFFICE,"RM. 506 MEDICAL TOWERS MAKATI, RUFINO ST. LEGASPI VILLAGE, MAKATI CITY, METRO MANILA, PHILIPPINES",METRO MANILA,NCR,MAXICARE-ACCREDITED DENTAL CLINIC,"<Point><coordinates>121.017860,14.557105,0.000000</coordinates></Point>",
880000000013200,PDC PREMIERE DENTAL CENTER CO.,"UNIT 601 MEDICAL TOWERS MAKATI 103 V.A RUFINO ST. LEGASPI VILL MAKATI CITY, MAKATI CITY, METRO MANILA, PHILIPPINES",METRO MANILA,NCR,MAXICARE-ACCREDITED DENTAL CLINIC,"<Point><coordinates>121.017899,14.556814,0.000000</coordinates></Point>",
880000000013294,"DOMINIC LEMUEL B. SEVILLA, DMD DENTAL CLINIC","1410 MEDICAL PLAZA MAKATI, AMORSOLO COR. DELA ROSA STS. MAKATI, MAKATI CITY, METRO MANILA, PHILIPPINES",METRO MANILA,NCR,MAXICARE-ACCREDITED DENTAL CLINIC,"<Point><coordinates>121.018356,14.566264,0.000000</coordinates></Point>",
880000000013127,DENTAL AWARENESS CARD INC-MAKATI CLINIC,"UNIT 1619, REGENCY, DELA ROSA CORNER RADA, LEGASPI VILLAGE, MAKATI CITY, METRO MANILA, PHILIPPINES",METRO MANILA,NCR,MAXICARE-ACCREDITED DENTAL CLINIC,"<Point><coordinates>121.018913,14.556461,0.000000</coordinates></Point>",
880000000013081,ARROYO DENTAL CLINIC,"UPPER GROUND UNIT 6, STARCENTRUM CONDOMINIUM 317, SEN. GIL PUYAT AVE. COR. MALUGAY ST. BEL AIR,, MAKATI CITY, METRO MANILA, PHILIPPINES",METRO MANILA,NCR,MAXICARE-ACCREDITED DENTAL CLINIC,"<Point><coordinates>121.019547,14.562032,0.000000</coordinates></Point>",
880000000013147,DR. ELAINE SILVA COMPREHENSIVE DENT-ORTHO DENTAL CLINIC,"UNIT 1220 CITYLAND HERRERA TOWER SALCEDO VILL., MAKATI CITY, METRO MANILA, MAKATI CITY, METRO MANILA, PHILIPPINES",METRO MANILA,NCR,MAXICARE-ACCREDITED DENTAL CLINIC,"<Point><coordinates>121.019554,14.558974,0.000000</coordinates></Point>",
880000000013146,DR. ODETTE M. DAVID DENTAL CLINIC,"UNIT 1121 HERRERA TOWER RUFINO ST. COR. VALERO SALCEDO VILL., MAKATI CITY, MAKATI CITY, METRO MANILA, PHILIPPINES",METRO MANILA,NCR,MAXICARE-ACCREDITED DENTAL CLINIC,"<Point><coordinates>121.019577,14.558974,0.000000</coordinates></Point>",
880000000009722,CLINICA DE LA LUZ,"3542 LUBIRAN ST., BACOOD, STA. MESA, MANILA CITY, METRO MANILA, PHILIPPINES",METRO MANILA,NCR,MAXICARE-ACCREDITED CLINIC,"<Point><coordinates>121.020790,14.590301,0.000000</coordinates></Point>",
880000000014350,HARIETH JOY R. MARTIREZ DENTAL SUITE,"UNIT 2H, 2ND FLR., ISOSCELES COMMERCIAL CENTER, #401 JP RIZAL ST. NAMAYAN, MANDALUYONG CITY, METRO MANILA, PHILIPPINES",METRO MANILA,NCR,MAXICARE-ACCREDITED DENTAL CLINIC,"<Point><coordinates>121.021187,14.583293,0.000000</coordinates></Point>",
880000000006020,CAPITOL MEDICAL CENTER,"SCOUT MAGBANUA COR. PANAY AVENUE, QUEZON CITY, METRO MANILA, PHILIPPINES",METRO MANILA,NCR,MAXICARE-ACCREDITED HOSPITAL,"<Point><coordinates>121.022858,14.633874,0.000000</coordinates></Point>",
880000000014064,IMMUNOBOOSTERS CO.,"SUITE 206 2ND FLOOR, # 1113 ANTIPOLO STREET CORNER J.P. RIZAL BARANGAY VALENZUELA, MAKATI CITY, METRO MANILA, PHILIPPINES",METRO MANILA,NCR,MAXICARE-ACCREDITED CLINIC,"<Point><coordinates>121.024460,14.569703,0.000000</coordinates></Point>",
880000000006098,ALABANG MEDICAL CENTER,"ALABANG-ZAPOTE ROAD, MUNTINLUPA CITY, METRO MANILA, PHILIPPINES",METRO MANILA,NCR,MAXICARE-ACCREDITED HOSPITAL,"<Point><coordinates>121.024490,14.427698,0.000000</coordinates></Point>",
880000000013334,TC DENTAL CLINIC,"UNIT 9 AURORA BLDG. ALABANG ZAPOTE RD., MUNTINLUPA, MUNTINLUPA CITY, METRO MANILA, PHILIPPINES",METRO MANILA,NCR,MAXICARE-ACCREDITED DENTAL CLINIC,"<Point><coordinates>121.024849,14.427682,0.000000</coordinates></Point>",
880000000009393,VALULIFE MOBILE X-RAY AND LABORATORY SERVICES,"G/F AURORA BLDG., ALABANG-ZAPOTE ROAD, ALABANG, MUNTINLUPA CITY, METRO MANILA, PHILIPPINES",METRO MANILA,NCR,MAXICARE-ACCREDITED CLINIC,"<Point><coordinates>121.025009,14.427495,0.000000</coordinates></Point>",
880000000001796,PATIENT FIRST MEDICAL CENTER,"3RD FLOOR MERCURY DRUG BLDG., GLORIETTA, AYALA CENTER, MAKATI CITY, METRO MANILA, PHILIPPINES",METRO MANILA,NCR,MAXICARE-ACCREDITED CLINIC,"<Point><coordinates>121.025085,14.552086,0.000000</coordinates></Point>",
880000000014586,CLINICA MANILA WEST AVENUE INC.,"2ND FLR, HOLLYWOOD SQUARE BLDG. 33 WEST AVE, QUEZON CITY, METRO MANILA, PHILIPPINES",METRO MANILA,NCR,MAXICARE-ACCREDITED CLINIC,"<Point><coordinates>121.026199,14.639324,0.000000</coordinates></Point>",
880000000014546,PERFECT SIGHT EYE CENTER,"3/F SMNE-UNIT 306-308 (BLDG, F) SM CITY NORTH EDSA BAGONG PAG-ASA, QUEZON CITY, METRO MANILA, PHILIPPINES",METRO MANILA,NCR,MAXICARE-ACCREDITED CLINIC,"<Point><coordinates>121.029510,14.657660,0.000000</coordinates></Point>",
880000000012926,"ALABANG CATARACT AND LASIK CENTER, INC.","2ND FLOOR COMMERCE MALL, ALABANG TOWN CENTER, ALABANG, MUNTINLUPA CITY, METRO MANILA, PHILIPPINES",METRO MANILA,NCR,MAXICARE-ACCREDITED CLINIC,"<Point><coordinates>121.029861,14.422570,0.000000</coordinates></Point>",
880000000009419,HEALTH ALERT MEDICAL & DIAGNOSTIC CENTER,"UNIT 5 PARAMOUNT BLDG., PHILAM HOMES, QUEZON CITY, METRO MANILA, PHILIPPINES",METRO MANILA,NCR,MAXICARE-ACCREDITED CLINIC,"<Point><coordinates>121.030037,14.654603,0.000000</coordinates></Point>",
880000000009251,ASIA RENAL CARE (PHILIPPINES) INC-ALABANG,"2ND FLR., ALABANG TOWN CENTER, ALABANG, MUNTINLUPA CITY, METRO MANILA, PHILIPPINES",METRO MANILA,NCR,MAXICARE-ACCREDITED CLINIC,"<Point><coordinates>121.030640,14.423874,0.000000</coordinates></Point>",
880000000013172,TOOTH SAVERS CO.,"20 B HILARIO BLDG.PRESIDENTS AVE. BF HOMES SUCAT, PARAÑAQUE CITY, METRO MANILA, PARAÑAQUE CITY, METRO MANILA, PHILIPPINES",METRO MANILA,NCR,MAXICARE-ACCREDITED DENTAL CLINIC,"<Point><coordinates>121.031120,14.457662,0.000000</coordinates></Point>",
880000000013285,HOLY FAMILY DENTAL CLINIC,"500 ALIW ST. BONI AVE. MANDALUYONG CITY, MANDALUYONG CITY, METRO MANILA, MANDALUYONG CITY, METRO MANILA, PHILIPPINES",METRO MANILA,NCR,MAXICARE-ACCREDITED DENTAL CLINIC,"<Point><coordinates>121.031738,14.588624,0.000000</coordinates></Point>",
880000000006029,DR. JESUS C. DELGADO MEMORIAL HOSPITAL,"7 KAMUNING ROAD, QUEZON CITY, METRO MANILA, PHILIPPINES",METRO MANILA,NCR,MAXICARE-ACCREDITED HOSPITAL,"<Point><coordinates>121.034561,14.627656,0.000000</coordinates></Point>",
880000000000243,BERNARDINO GENERAL HOSPITAL I,"680 QUIRINO HI-WAY SAN BARTOLOME NOVALICHES, QUEZON CITY, METRO MANILA, PHILIPPINES",METRO MANILA,NCR,MAXICARE-ACCREDITED HOSPITAL,"<Point><coordinates>121.034798,14.700306,0.000000</coordinates></Point>",
880000000009726,"D' FAMILY CARE CLINIC, INC.-NOVALICHES","216 GEN. LUIS STREET, NOVALICHES, QUEZON CITY, METRO MANILA, PHILIPPINES",METRO MANILA,NCR,MAXICARE-ACCREDITED CLINIC,"<Point><coordinates>121.036079,14.721740,0.000000</coordinates></Point>",
880000000014117,MINUTE HEALTHCARE,"#238 SCT. BAYORAN, TOMAS MORATO AVE., BRGY. SOUTH TRIANGLE, QUEZON CITY, METRO MANILA, PHILIPPINES",METRO MANILA,NCR,MAXICARE-ACCREDITED CLINIC,"<Point><coordinates>121.036201,14.637938,0.000000</coordinates></Point>",
880000000014647,SMILEWORLD DENTAL CENTER,"2F EPG BUILDING, DONA SOLEDAD AVE., BETTERLIVING SUBD,, PARAÑAQUE CITY, METRO MANILA, PHILIPPINES",METRO MANILA,NCR,MAXICARE-ACCREDITED DENTAL CLINIC,"<Point><coordinates>121.036636,14.482657,0.000000</coordinates></Point>",
880000000014405,"BDM IMAGING CENTER, INC.-MANDALUYONG","UNIT 2A LIGAYA ST., MIRALEN BLDG., BRGY., PLAINVIEW, BONI AVE., MANDALUYONG CITY, METRO MANILA, PHILIPPINES",METRO MANILA,NCR,MAXICARE-ACCREDITED CLINIC,"<Point><coordinates>121.038620,14.576473,0.000000</coordinates></Point>",
880000000013519,DYNAMICARE MEDICAL CLINIC AND DIAGNOSTIC LABORATORY,"4TH FLR., NORTHRIDGE PLAZA, CONGRESSIONAL AVE., BRGY. BAHAY TORO, QUEZON CITY, METRO MANILA, PHILIPPINES",METRO MANILA,NCR,MAXICARE-ACCREDITED CLINIC,"<Point><coordinates>121.039017,14.670743,0.000000</coordinates></Point>",
880000000009721,THE HEALTH CUBE MULTISPECIALTY CLINIC AND DIAGNOSTIC CENTER,"2/F THE HEALTH CUBE CENTER, 226 WILSON ST., GREENHILLS, SAN JUAN, METRO MANILA, PHILIPPINES",METRO MANILA,NCR,MAXICARE-ACCREDITED CLINIC,"<Point><coordinates>121.041275,14.597258,0.000000</coordinates></Point>",
880000000013150,DR. LEILA S. AGUILAR DENTAL CLINIC,"3RD GROUND FLOOR FREEDOM PLAZA LIBERTY CENTER, MANDALUYONG CITY, METRO MANILA, MANDALUYONG CITY, METRO MANILA, PHILIPPINES",METRO MANILA,NCR,MAXICARE-ACCREDITED DENTAL CLINIC,"<Point><coordinates>121.041916,14.588650,0.000000</coordinates></Point>",
880000000012874,DR. RAMON ANTONIO S. SARMIENTO REHABILITATION CLINIC,"UNIT 606, 2301 CIVIC PLACE, FILINVEST ALABANG, MUNTINLUPA CITY, METRO MANILA, PHILIPPINES",METRO MANILA,NCR,MAXICARE-ACCREDITED CLINIC,"<Point><coordinates>121.043427,14.414185,0.000000</coordinates></Point>",
880000000009092,ASIAN HOSPITAL AND MEDICAL CENTER,"BLK 15 LOT 1B, CIVIC DRIVE COR CENTENNIAL LANE, FILINVEST CORPORATION CITY, ALABANG, MUNTINLUPA CITY, METRO MANILA, PHILIPPINES",METRO MANILA,NCR,MAXICARE-ACCREDITED HOSPITAL,"<Point><coordinates>121.043701,14.413296,0.000000</coordinates></Point>",
880000000009444,"CENTRALLE MEDICAL DIAGNOSTICS AND POLYCLINIC, INC.-CAMARIN","UNIT 5-7 RDF BUILDING, OLD ZABARTE ROAD, CAMARIN NOVALICHES, QUEZON CITY, METRO MANILA, PHILIPPINES",METRO MANILA,NCR,MAXICARE-ACCREDITED CLINIC,"<Point><coordinates>121.043755,14.770235,0.000000</coordinates></Point>",
880000000001602,ALABANG MEDICAL CLINIC-PUTATAN,"1 NATIONAL ROAD, PUTATAN, MUNTINLUPA CITY, METRO MANILA, PHILIPPINES",METRO MANILA,NCR,MAXICARE-ACCREDITED HOSPITAL,"<Point><coordinates>121.044373,14.391157,0.000000</coordinates></Point>",
880000000013337,DESIGNER SMILES DENTAL CLINIC,"UNIT 2C KENSINGTON PLACE CONDOMINIUM 1ST AVE.COR. 29TH  ST. CRESENT PARKWEST, BONIFACIO CLOBAL CITY TAGUIG, TAGUIG CITY, METRO MANILA, PHILIPPINES",METRO MANILA,NCR,MAXICARE-ACCREDITED DENTAL CLINIC,"<Point><coordinates>121.044708,14.552663,0.000000</coordinates></Point>",
880000000013087,MALENAB DENTAL CLINIC,"2/F ALECON BLDG. 2012 MAGSAYSAY ST. GUADALUPE NUEVO,, MAKATI CITY, METRO MANILA, PHILIPPINES",METRO MANILA,NCR,MAXICARE-ACCREDITED DENTAL CLINIC,"<Point><coordinates>121.045044,14.563418,0.000000</coordinates></Point>",
880000000014411,DR. ESTHER CASIPIT-TAN DENTAL CLINIC,"GRAND HAMPTONS TOWER 1 2ND AVE. COR. 31ST ST. BONIFACIO GLOBAL CITY, TAGUIG CITY, METRO MANILA, PHILIPPINES",METRO MANILA,NCR,MAXICARE-ACCREDITED DENTAL CLINIC,"<Point><coordinates>121.045052,14.554498,0.000000</coordinates></Point>",
880000000006086,MPI-MEDICAL CENTER MUNTINLUPA,"# 338 NATIONAL RD. PUTATAN, MUNTINLUPA CITY, METRO MANILA, PHILIPPINES",METRO MANILA,NCR,MAXICARE-ACCREDITED HOSPITAL,"<Point><coordinates>121.045204,14.394908,0.000000</coordinates></Point>",
880000000001345,LUNG CENTER OF THE PHILIPPINES,"QUEZON AVE., EXT., QUEZON CITY, METRO MANILA, PHILIPPINES",METRO MANILA,NCR,MAXICARE-ACCREDITED HOSPITAL,"<Point><coordinates>121.045433,14.647846,0.000000</coordinates></Point>",
880000000006021,CARDINAL SANTOS MEDICAL CENTER,"WILSON ST., GREENHILLS, SAN JUAN, METRO MANILA, PHILIPPINES",METRO MANILA,NCR,MAXICARE-ACCREDITED HOSPITAL,"<Point><coordinates>121.045815,14.597538,0.000000</coordinates></Point>",
880000000013856,"CARBONELL, FRONDOZO AND ASSOCIATES DENTAL CLINIC, CO.","GRD FLR. LEFT WING METROPOLIS MALL ALABANG CITY, MUNTINLUPA CITY, METRO MANILA, PHILIPPINES",METRO MANILA,NCR,MAXICARE-ACCREDITED DENTAL CLINIC,"<Point><coordinates>121.045822,14.417681,0.000000</coordinates></Point>",
880000000012311,"KLINI-KAYA MEDICAL SPECIALIST, INC.","UNIT 2D AND 2E KIMSTON PLAZA P. VICTOR ST. GUADALUPE NUEVO, MAKATI CITY, METRO MANILA, PHILIPPINES",METRO MANILA,NCR,MAXICARE-ACCREDITED CLINIC,"<Point><coordinates>121.046448,14.565539,0.000000</coordinates></Point>",
880000000009072,BERNARDINO GENERAL HOSPITAL II,"NORTH OLYMPUS ZABARTE ROAD BRGY. KALIGAYAHAN NOVALICHES, QUEZON CITY, METRO MANILA, PHILIPPINES",METRO MANILA,NCR,MAXICARE-ACCREDITED HOSPITAL,"<Point><coordinates>121.046799,14.739644,0.000000</coordinates></Point>",
880000000014557,CONCEPCION DENTAL CLINIC AND TEETH WHITENING CENTER,"F1 HOTEL FORT BONIFACIO STOP OVER CORNER 32ND STREET AND RIZAL DRIVE, TAGUIG CITY, METRO MANILA, PHILIPPINES",METRO MANILA,NCR,MAXICARE-ACCREDITED DENTAL CLINIC,"<Point><coordinates>121.046967,14.554441,0.000000</coordinates></Point>",
880000000012985,HEALTH CHECK MEDICAL CLINIC AND DIAGNOSTIC CENTER,"SULU RIVERA HOTEL ANNEX, MATALINO ST., DILIMAN, QUEZON CITY, METRO MANILA, PHILIPPINES",METRO MANILA,NCR,MAXICARE-ACCREDITED CLINIC,"<Point><coordinates>121.048820,14.644862,0.000000</coordinates></Point>",
880000000009264,LASER CENTER,"G/F VICTOR R POTENCIANO MEDICAL CENTER, 163 EDSA, MANDALUYONG CITY, METRO MANILA, PHILIPPINES",METRO MANILA,NCR,MAXICARE-ACCREDITED CLINIC,"<Point><coordinates>121.049858,14.576855,0.000000</coordinates></Point>",
880000000000044,ALABANG MEDICAL CLINIC-MAIN,"#297 MONTILLANO ST., ALABANG, MUNTINLUPA CITY, METRO MANILA, PHILIPPINES",METRO MANILA,NCR,MAXICARE-ACCREDITED HOSPITAL,"<Point><coordinates>121.050003,14.419266,0.000000</coordinates></Point>",
880000000006079,DR. VICTOR R. POTENCIANO MEDICAL CENTER,"163 EDSA, MANDALUYONG CITY, METRO MANILA, PHILIPPINES",METRO MANILA,NCR,MAXICARE-ACCREDITED HOSPITAL,"<Point><coordinates>121.050026,14.577016,0.000000</coordinates></Point>",
880000000009513,ASIA RENAL CARE (PHILIPPINES) INC-EDSA PARAGON,"2/F PARAGON BUILDING, EDSA COR. RELIANCE, MANDALUYONG CITY, METRO MANILA, PHILIPPINES",METRO MANILA,NCR,MAXICARE-ACCREDITED CLINIC,"<Point><coordinates>121.050514,14.576253,0.000000</coordinates></Point>",
880000000013374,MAC PRIMARY DENTAL CLINIC,"WALTERMART CENTER CARMONA  MACARIA BUSINESS CENTER, GOVERNOR'S DRIVE, MABUHAY, CARMONA, CAVITE, CARMONA, CAVITE, PHILIPPINES",CAVITE,REGION 4-A,MAXICARE-ACCREDITED DENTAL CLINIC,"<Point><coordinates>121.050735,14.313124,0.000000</coordinates></Point>",
880000000013154,WORLDWIDE DENTAL SERVICES,"WORLDWIDE CORPORATE CENTER SHAW BLVD. MANDALUYONG CITY, MANDALUYONG CITY, METRO MANILA, PHILIPPINES",METRO MANILA,NCR,MAXICARE-ACCREDITED DENTAL CLINIC,"<Point><coordinates>121.051453,14.582348,0.000000</coordinates></Point>",
880000000000248,BEST DIAGNOSTIC CORPORATION,"94 MASIKAP EXT., BRGY. CENTRAL, DILIMAN, QUEZON CITY, METRO MANILA, PHILIPPINES",METRO MANILA,NCR,MAXICARE-ACCREDITED CLINIC,"<Point><coordinates>121.052048,14.644664,0.000000</coordinates></Point>",
880000000014473,CLINIC NG BAYAN,"873 UPPER G/F DIAMOND ARCADE, AURORA BLVD., CUBAO, QUEZON CITY, METRO MANILA, PHILIPPINES",METRO MANILA,NCR,MAXICARE-ACCREDITED CLINIC,"<Point><coordinates>121.052094,14.622911,0.000000</coordinates></Point>",
880000000014783,DR. JOSEPHINE M. ARAGO DENTAL CLINIC- GOMEZ,"28-P. GOMEZ ST., BATANGAS CITY, BATANGAS, PHILIPPINES",BATANGAS,REGION 4-A,MAXICARE-ACCREDITED DENTAL CLINIC,"<Point><coordinates>121.052383,13.903024,0.000000</coordinates></Point>",
880000000013318,CLINICA DENTAL - DR. MARIA GINA LYN A. FLORES,"G/F RUBY BLDG. 43 P. BURGOS ST., BATANGAS CITY, BATANGAS, PHILIPPINES",BATANGAS,REGION 4-A,MAXICARE-ACCREDITED DENTAL CLINIC,"<Point><coordinates>121.052467,13.769565,0.000000</coordinates></Point>",
880000000009257,HEALTH DELIVERY SYSTEM (HEALTH FIRST),"2ND FLR. GDC BLDG., 750 SHAW BLVD., MANDALUYONG CITY, METRO MANILA, PHILIPPINES",METRO MANILA,NCR,MAXICARE-ACCREDITED CLINIC,"<Point><coordinates>121.053703,14.582716,0.000000</coordinates></Point>",
880000000014558,DE LUNAS DENTAL CENTRE,"3RD FLR. STARMALL EDSA COR. SHAW BLVD., MANDALUYONG CITY, METRO MANILA, PHILIPPINES",METRO MANILA,NCR,MAXICARE-ACCREDITED DENTAL CLINIC,"<Point><coordinates>121.053734,14.582727,0.000000</coordinates></Point>",
880000000009376,HOPEMED,"2/F GENERAL ROMULO AVENUE BRGY. SOCORRO ARANETA CENTER CUBAO, QUEZON CITY, METRO MANILA, PHILIPPINES",METRO MANILA,NCR,MAXICARE-ACCREDITED CLINIC,"<Point><coordinates>121.055702,14.623565,0.000000</coordinates></Point>",
880000000002971,THE AMERICAN EYE CORRECTION CENTER,"5TH LEVEL, SHANGRILA PLAZA, EDSA COR. SHAW BLVD., MANDALUYONG CITY, METRO MANILA, PHILIPPINES",METRO MANILA,NCR,MAXICARE-ACCREDITED CLINIC,"<Point><coordinates>121.055992,14.580624,0.000000</coordinates></Point>",
880000000013173,R. QUIAMBAO DENTAL CLINIC,"LG 22 CITYLAND SHAW TOWER, SHAW BLVD., MANDALUYONG CITY, METRO MANILA, MANDALUYONG CITY, METRO MANILA, PHILIPPINES",METRO MANILA,NCR,MAXICARE-ACCREDITED DENTAL CLINIC,"<Point><coordinates>121.056175,14.579347,0.000000</coordinates></Point>",
880000000000528,CLINICA MANILA,"2ND FLOOR UNIT 202 BLDG. A SM MEGAMALL COMPLEX, DON JULIO VARGAS AVE., MANDALUYONG CITY, METRO MANILA, PHILIPPINES",METRO MANILA,NCR,MAXICARE-ACCREDITED CLINIC,"<Point><coordinates>121.057190,14.585857,0.000000</coordinates></Point>",
880000000000665,"DIVINE MERCY HOSPITAL, INC.-LAGUNA","AMANTE SUBD., SAN PEDRO, LAGUNA, PHILIPPINES",LAGUNA,REGION 4-A,MAXICARE-ACCREDITED HOSPITAL,"<Point><coordinates>121.057549,14.359121,0.000000</coordinates></Point>",
880000000013308,"DENTAL ELITE A CENTER FOR AESTHETICS, IMPLANT & RESTORATIVE DENTISTRY - BATANGAS CITY","1ST FLOOR, MB ARCE BUILDING HILLTOP, NATIONAL HIGHWAY, KUMINTANG IBABA, BATANGAS CITY, BATANGAS CITY, BATANGAS, PHILIPPINES",BATANGAS,REGION 4-A,MAXICARE-ACCREDITED DENTAL CLINIC,"<Point><coordinates>121.057739,13.759253,0.000000</coordinates></Point>",
880000000000831,EVANGELISTA MEDICAL SPECIALTY HOSPITAL,"MACARIA AVE. COR. J.P. RIZAL ST. PACITA COMPLEX, SAN PEDRO, LAGUNA, PHILIPPINES",LAGUNA,REGION 4-A,MAXICARE-ACCREDITED HOSPITAL,"<Point><coordinates>121.058174,14.341986,0.000000</coordinates></Point>",
880000000013175,J. CAPISTRANO DENTAL CLINIC,"70 BLK. 2 LOT 2 PACITA AVE. MAIN RD.MACARIA AVE. PACITA COMPH. SAN PEDRO LAGUNA, SAN PEDRO, LAGUNA, PHILIPPINES",LAGUNA,REGION 4-A,MAXICARE-ACCREDITED DENTAL CLINIC,"<Point><coordinates>121.058479,14.343145,0.000000</coordinates></Point>",
880000000009315,"BIOMEDICS MEDICAL CLINIC, INC.","G, H, I 3RD FLR. BODY SENSES ROBINSONS GALLERIA EDSA COR ORTIGAS AVE., QUEZON CITY, METRO MANILA, PHILIPPINES",METRO MANILA,NCR,MAXICARE-ACCREDITED CLINIC,"<Point><coordinates>121.058769,14.591869,0.000000</coordinates></Point>",
880000000000965,GOOD NEWS CLINIC & HOSPITAL,"ILOGUE, TAM-AN, BANAUE, IFUGAO, PHILIPPINES",IFUGAO,CAR,MAXICARE-ACCREDITED HOSPITAL,"<Point><coordinates>121.058807,16.914036,0.000000</coordinates></Point>",
880000000013317,VERGARA-MUNOZ DENTAL CLINIC,"D. SILANG ST. COR.CANLAPAN ST. BATANGAS CITY, BATANGAS CITY, BATANGAS, PHILIPPINES",BATANGAS,REGION 4-A,MAXICARE-ACCREDITED DENTAL CLINIC,"<Point><coordinates>121.058929,13.759436,0.000000</coordinates></Point>",
880000000013512,ALEM DENTAL CLINIC - PARAÑAQUE,"PRIMA MEDICA HEALTH CLINIC,3RD FLOOR BLDG. B, SM CITY SUCAT PARAÑAQUE, PARAÑAQUE CITY, METRO MANILA, PHILIPPINES",METRO MANILA,NCR,MAXICARE-ACCREDITED DENTAL CLINIC,"<Point><coordinates>121.059151,14.512291,0.000000</coordinates></Point>",
880000000009274,GALILEO SURGICENTER,"G/F BELSON HOUSE 271 EDSA, MANDALUYONG CITY, METRO MANILA, PHILIPPINES",METRO MANILA,NCR,MAXICARE-ACCREDITED CLINIC,"<Point><coordinates>121.059174,14.600923,0.000000</coordinates></Point>",
880000000013077,DENTAL SPECIALIST CLINIC,"12 GUMAMELA ST, PEMBO MAKATI, MAKATI CITY, METRO MANILA, PHILIPPINES",METRO MANILA,NCR,MAXICARE-ACCREDITED DENTAL CLINIC,"<Point><coordinates>121.060722,14.546336,0.000000</coordinates></Point>",
880000000014455,COMMONWEALTH HOSPITAL AND MEDICAL CENTER,"LOT 3 & 4, BLK. 3, NEOPOLITAN BUSINESS PARKS, REGALADO HIGHWAY, BRGY. GREATER LAGRO, NOVALICHES, QUEZON CITY, METRO MANILA, PHILIPPINES",METRO MANILA,NCR,MAXICARE-ACCREDITED HOSPITAL,"<Point><coordinates>121.060860,14.731577,0.000000</coordinates></Point>",
880000000013981,MARIATEGUE DENTAL CLINIC,"141 M L QUEZON ST. LOWER BICUTAN, TAGUIG CITY, METRO MANILA, PHILIPPINES",METRO MANILA,NCR,MAXICARE-ACCREDITED DENTAL CLINIC,"<Point><coordinates>121.061829,14.491549,0.000000</coordinates></Point>",
880000000006053,WORLD CITI MEDICAL CENTER,"960 AURORA BLVD., CUBAO, QUEZON CITY, METRO MANILA, PHILIPPINES",METRO MANILA,NCR,MAXICARE-ACCREDITED HOSPITAL,"<Point><coordinates>121.063210,14.627053,0.000000</coordinates></Point>",
880000000013693,JACQUILINE AGUILAR ORTHO DENTAL CLINIC,"SHOP 29 2ND FLR. PASEO DE STA. ROSA, STA ROSA LAGUNA, SANTA ROSA CITY, LAGUNA, PHILIPPINES",LAGUNA,REGION 4-A,MAXICARE-ACCREDITED DENTAL CLINIC,"<Point><coordinates>121.064529,14.248162,0.000000</coordinates></Point>",
880000000013355,PCONCIO DENTAL CLINIC,"927 P. HERRERA ST. BGY. AGUHO,, PATEROS, METRO MANILA, PATEROS, METRO MANILA, PHILIPPINES",METRO MANILA,NCR,MAXICARE-ACCREDITED DENTAL CLINIC,"<Point><coordinates>121.064934,14.544041,0.000000</coordinates></Point>",
880000000009080,SAN PEDRO DOCTORS HOSPITAL,"REMEDIOS BUILDING, NATIONAL HIGHWAY, SAN PEDRO, LAGUNA, PHILIPPINES",LAGUNA,REGION 4-A,MAXICARE-ACCREDITED HOSPITAL,"<Point><coordinates>121.065109,14.348836,0.000000</coordinates></Point>",
880000000013839,CRUZ DENTAL CLINIC,"89 PACITA AVE., PACITA 1, SAN PEDRO LAGUNA, SAN PEDRO, LAGUNA, PHILIPPINES",LAGUNA,REGION 4-A,MAXICARE-ACCREDITED DENTAL CLINIC,"<Point><coordinates>121.065262,14.347386,0.000000</coordinates></Point>",
880000000009442,ASSOCIATED DOCTORS CLINIC CORPORATION,"MADISON SQUARE, NATIONAL HIGHWAY, BRGY. LANDAYAN, SAN PEDRO, LAGUNA, PHILIPPINES",LAGUNA,REGION 4-A,MAXICARE-ACCREDITED CLINIC,"<Point><coordinates>121.065392,14.348709,0.000000</coordinates></Point>",
880000000009724,"D' FAMILY CARE CLINIC, INC.-LAGRO","G/F QUIRINO HIGHWAY, LAGRO, FAIRVIEW, QUEZON CITY, METRO MANILA, PHILIPPINES",METRO MANILA,NCR,MAXICARE-ACCREDITED CLINIC,"<Point><coordinates>121.066895,14.735486,0.000000</coordinates></Point>",
880000000009571,SOUTHERN LUZON HOSPITAL AND MEDICAL CENTER,"SLHMCI GREENFIELD CITY, DON JOSE, SANTA ROSA CITY, LAGUNA, PHILIPPINES",LAGUNA,REGION 4-A,MAXICARE-ACCREDITED HOSPITAL,"<Point><coordinates>121.067238,14.248635,0.000000</coordinates></Point>",
880000000000872,FEU-NRMF MEDICAL CENTER,"H. REGALADO COR. DAHLIA ST., WEST FAIRVIEW, QUEZON CITY, METRO MANILA, PHILIPPINES",METRO MANILA,NCR,MAXICARE-ACCREDITED HOSPITAL,"<Point><coordinates>121.067245,14.698972,0.000000</coordinates></Point>",
880000000014555,ROCO DENTAL CLINIC,"SUITE 1605 THE MEDICAL CITY ORTIGAS, PASIG CITY, METRO MANILA, PHILIPPINES",METRO MANILA,NCR,MAXICARE-ACCREDITED DENTAL CLINIC,"<Point><coordinates>121.069313,14.589881,0.000000</coordinates></Point>",
880000000000852,FAIRVIEW GENERAL HOSPITAL,"LOT 20, FAIRVIEW AVE., COR MERCURY ST., BRGY. FAIRVIEW, QUEZON CITY, METRO MANILA, PHILIPPINES",METRO MANILA,NCR,MAXICARE-ACCREDITED HOSPITAL,"<Point><coordinates>121.072021,14.705624,0.000000</coordinates></Point>",
880000000009247,ACE DIAGNOSTICS,"UNIT 4 & 5 CPE BLDG. DON MARIANO AVE. FAIRVIEW., QUEZON CITY, METRO MANILA, PHILIPPINES",METRO MANILA,NCR,MAXICARE-ACCREDITED CLINIC,"<Point><coordinates>121.075699,14.704857,0.000000</coordinates></Point>",
880000000012017,SUREHEALTH MULTI-SPECIALTY DIAGNOSTIC CLINIC,"UNIT 207 WEBJET BLDG., E. RODRIGUEZ JR. AVE., BAGUMBAYAN, QUEZON CITY, METRO MANILA, PHILIPPINES",METRO MANILA,NCR,MAXICARE-ACCREDITED CLINIC,"<Point><coordinates>121.078957,14.603077,0.000000</coordinates></Point>",
880000000013914,DR. MYRNA M. SAMSON DENTAL CLINIC,"2ND FLOOR PM BUILDING, FELIPE- DY COMPUND BONIFACIO ST. POBLACION, BIÑAN, LAGUNA, PHILIPPINES",LAGUNA,REGION 4-A,MAXICARE-ACCREDITED DENTAL CLINIC,"<Point><coordinates>121.079803,14.338488,0.000000</coordinates></Point>",
880000000009239,"BOROUGH MEDICAL CARE INSTITUTE, INC.-LIBIS","6/F CYBERMALL, EASTWOOD CITY, LIBIS, QUEZON CITY, METRO MANILA, PHILIPPINES",METRO MANILA,NCR,MAXICARE-ACCREDITED CLINIC,"<Point><coordinates>121.080620,14.607723,0.000000</coordinates></Point>",
880000000009235,"CLINICA MARIKINA MULTISPECIALTY CLINICS, INC.","1/F BENHEL MANSION, SAN PASCUAL BLDG., 79 A. BONIFACIO AVE. BARANGKA, MARIKINA CITY, METRO MANILA, PHILIPPINES",METRO MANILA,NCR,MAXICARE-ACCREDITED CLINIC,"<Point><coordinates>121.081985,14.631860,0.000000</coordinates></Point>",
880000000011088,COMMONHEALTH DIAGNOSTIC AND WELLNESS CENTER,"UPPER GROUND FLR. LENNJUL BLDG. # 2205 COMMONWEALTH AVE., BRGY. HOLY SPIRIT, QUEZON CITY, METRO MANILA, PHILIPPINES",METRO MANILA,NCR,MAXICARE-ACCREDITED CLINIC,"<Point><coordinates>121.083069,14.678403,0.000000</coordinates></Point>",
880000000013177,BEDIA-PARATI ORTHO-DENTAL CLINIC,"120 P. PATERNO ST. BIÑAN LAGUNA, BIÑAN, LAGUNA, PHILIPPINES",LAGUNA,REGION 4-A,MAXICARE-ACCREDITED DENTAL CLINIC,"<Point><coordinates>121.084335,14.344777,0.000000</coordinates></Point>",
880000000001816,"UPH-DR. JOSE G. TAMAYO MEDICAL UNIVERSITY, INC.","STO. NINO, BIÑAN, LAGUNA, PHILIPPINES",LAGUNA,REGION 4-A,MAXICARE-ACCREDITED HOSPITAL,"<Point><coordinates>121.085297,14.330744,0.000000</coordinates></Point>",
880000000006016,BINAN DOCTORS' HOSPITAL INC.,"BO. PLATERO, BIÑAN, LAGUNA, PHILIPPINES",LAGUNA,REGION 4-A,MAXICARE-ACCREDITED HOSPITAL,"<Point><coordinates>121.092186,14.326087,0.000000</coordinates></Point>",
880000000013398,UY EYE CLINIC,"NATIONAL HIGHWAY, SAN ANTONIO, BIÑAN, LAGUNA, PHILIPPINES",LAGUNA,REGION 4-A,MAXICARE-ACCREDITED CLINIC,"<Point><coordinates>121.092728,14.326493,0.000000</coordinates></Point>",
880000000013635,CARA-CATARAN ORTHO-DENTAL CLINIC,"17 LRG BLDG. NATIONAL HI-WAY PLATERO BIÑAN LAGUNA, BIÑAN, LAGUNA, PHILIPPINES",LAGUNA,REGION 4-A,MAXICARE-ACCREDITED DENTAL CLINIC,"<Point><coordinates>121.093155,14.325058,0.000000</coordinates></Point>",
880000000000479,CENTRO MEDICAL & LABORATORY CLINIC,"351 J.P. RIZAL ST STO NINO, MARIKINA CITY, METRO MANILA, PHILIPPINES",METRO MANILA,NCR,MAXICARE-ACCREDITED CLINIC,"<Point><coordinates>121.094238,14.634933,0.000000</coordinates></Point>",
880000000009479,STA. ROSA HOSPITAL AND MEDICAL CENTER,"RSBS BLVD. SAN LORENZO SOUTH BALIBAGO, SANTA ROSA CITY, LAGUNA, PHILIPPINES",LAGUNA,REGION 4-A,MAXICARE-ACCREDITED HOSPITAL,"<Point><coordinates>121.095436,14.287128,0.000000</coordinates></Point>",
880000000013760,MICHELLE C. LIZARDA DENTAL CLINIC - STA ROSA HOSPITAL AND MEDICAL CENTER,"STA. ROSA HOSPITAL & MEDICAL RSBS BLVD. SAN LORENZO SOUTH BALIBAGO, STA. ROSA, LAGUNA, SANTA ROSA CITY, LAGUNA, PHILIPPINES",LAGUNA,REGION 4-A,MAXICARE-ACCREDITED DENTAL CLINIC,"<Point><coordinates>121.095474,14.287341,0.000000</coordinates></Point>",
880000000002350,ST. VICTORIA HOSPITAL,"444 J.P. RIZAL ST. LAMUAN, MALANDAY, MARIKINA CITY, METRO MANILA, PHILIPPINES",METRO MANILA,NCR,MAXICARE-ACCREDITED HOSPITAL,"<Point><coordinates>121.095619,14.643699,0.000000</coordinates></Point>",
880000000001448,MARIKINA CARDIAC LABORATORY,"239 J.P. RIZAL ST., SAN ROQUE, MARIKINA CITY, METRO MANILA, PHILIPPINES",METRO MANILA,NCR,MAXICARE-ACCREDITED CLINIC,"<Point><coordinates>121.096481,14.628953,0.000000</coordinates></Point>",
880000000013632,EAC DENTAL CLINIC,"25 SANTALIA DT. DE CASTRO SUBD. STA. LUCIA PASIG CITY, PASIG CITY, METRO MANILA, PHILIPPINES",METRO MANILA,NCR,MAXICARE-ACCREDITED DENTAL CLINIC,"<Point><coordinates>121.097908,14.586138,0.000000</coordinates></Point>",
880000000002814,"MARIAN HOSPITAL OF STA. ROSA, INC.","816 – A RIZAL BLVD. BRGY. TAGAPO, SANTA ROSA CITY, LAGUNA, PHILIPPINES",LAGUNA,REGION 4-A,MAXICARE-ACCREDITED HOSPITAL,"<Point><coordinates>121.098457,14.320952,0.000000</coordinates></Point>",
880000000009317,NEW SINAI MDI HOSPITAL,"NATIONAL HIGHWAY BRGY. TAGAPO, SANTA ROSA CITY, LAGUNA, PHILIPPINES",LAGUNA,REGION 4-A,MAXICARE-ACCREDITED HOSPITAL,"<Point><coordinates>121.098564,14.317573,0.000000</coordinates></Point>",
880000000010794,MANILA DOCTORS HOSPITAL AMBULATORY & DIAGNOSTIC CLINIC,"2ND FLR. BLUEWAVE MARIKINA SUMULONG HIGHWAY COR. G. FERNANDEZ AVE., STO. NINO, MARIKINA CITY, METRO MANILA, PHILIPPINES",METRO MANILA,NCR,MAXICARE-ACCREDITED CLINIC,"<Point><coordinates>121.101059,14.635529,0.000000</coordinates></Point>",
880000000013149,ARCIGAL DENTAL CLINIC,"G3 RCJ BLDG. COUNTRY SIDE AVE. CORNER ORTIGAS EXT. PASIG CITY, PASIG CITY, METRO MANILA, PHILIPPINES",METRO MANILA,NCR,MAXICARE-ACCREDITED DENTAL CLINIC,"<Point><coordinates>121.101288,14.589066,0.000000</coordinates></Point>",
880000000009625,HEALTH STAT DIAGNOSTIC AND MEDICAL CLINIC,"UNIT 15 & 16 MARIKINA EAST CENTER BLDG. # 83 G. FERNANDO AVE. SAN ROQUE, MARIKINA CITY, METRO MANILA, PHILIPPINES",METRO MANILA,NCR,MAXICARE-ACCREDITED CLINIC,"<Point><coordinates>121.101685,14.621115,0.000000</coordinates></Point>",
880000000013857,NGIPIN AVENUE DENTAL CLINIC,"ORANGE SQUARE STADIUM & HOTEL, BALIBAGO COMPLEX STA. ROSA, LAGUNA, SANTA ROSA CITY, LAGUNA, PHILIPPINES",LAGUNA,REGION 4-A,MAXICARE-ACCREDITED DENTAL CLINIC,"<Point><coordinates>121.102615,14.293028,0.000000</coordinates></Point>",
880000000012313,EASTERN MARIKINA DIALYSIS CENTER,"UNIT 101, NODISON CENTER, #9 MARCOS HIGHWAY, MARIKINA CITY, METRO MANILA, PHILIPPINES",METRO MANILA,NCR,MAXICARE-ACCREDITED CLINIC,"<Point><coordinates>121.103065,14.620648,0.000000</coordinates></Point>",
880000000013314,AYAG-MARANAN ORTHO DENTAL CLINIC,"UNIT 3 HOSPICIA ARCADE, SANTA ROSA CITY, LAGUNA, PHILIPPINES",LAGUNA,REGION 4-A,MAXICARE-ACCREDITED DENTAL CLINIC,"<Point><coordinates>121.105515,14.296344,0.000000</coordinates></Point>",
880000000013802,FATIMA M. RAMILO - MANALO DENTAL CLINIC,"1334 C. RIZAL BLVD. BALIBAGO, STA. ROSA, LAGUNA, SANTA ROSA CITY, LAGUNA, PHILIPPINES",LAGUNA,REGION 4-A,MAXICARE-ACCREDITED DENTAL CLINIC,"<Point><coordinates>121.106133,14.297031,0.000000</coordinates></Point>",
880000000000188,BALIBAGO POLYCLINIC AND HOSPITAL INC.,"PROVINCIAL ROAD, BALIBAGO, SANTA ROSA CITY, LAGUNA, PHILIPPINES",LAGUNA,REGION 4-A,MAXICARE-ACCREDITED HOSPITAL,"<Point><coordinates>121.106743,14.297400,0.000000</coordinates></Point>",
880000000009600,JESUS IMMACULATE CONCEPCION HOSPITAL,"# 15 KATIPUNAN AVE STO NINO, MARIKINA CITY, METRO MANILA, PHILIPPINES",METRO MANILA,NCR,MAXICARE-ACCREDITED HOSPITAL,"<Point><coordinates>121.108994,14.638358,0.000000</coordinates></Point>",
880000000006032,GARCIA GENERAL HOSPITAL,"49 BAYAN-BAYANAN AVE., COR. T. BUGALLON ST. MARIKINA HEIGHTS, MARIKINA CITY, METRO MANILA, PHILIPPINES",METRO MANILA,NCR,MAXICARE-ACCREDITED HOSPITAL,"<Point><coordinates>121.110909,14.651251,0.000000</coordinates></Point>",
880000000009451,SAN RAMON HOSPITAL,"38 GEN. ORDOÑEZ ST. RANCHO 4 IV, MARIKINA CITY, METRO MANILA, PHILIPPINES",METRO MANILA,NCR,MAXICARE-ACCREDITED HOSPITAL,"<Point><coordinates>121.116402,14.643891,0.000000</coordinates></Point>",
880000000014623,SALAZAR-CARANDANG ORTHO DENTAL CLINIC,"2 MACASAET BLDG. MAYAPA, CALAMBA, LAGUNA, PHILIPPINES",LAGUNA,REGION 4-A,MAXICARE-ACCREDITED DENTAL CLINIC,"<Point><coordinates>121.122597,14.211596,0.000000</coordinates></Point>",
880000000014082,DR. ERROL DENTAL CLINIC,"2ND FLOOR JIAO MEDICAL BUILDING NATIONAL HIGHWAY SICO LIPA CITY, LIPA CITY, BATANGAS, PHILIPPINES",BATANGAS,REGION 4-A,MAXICARE-ACCREDITED DENTAL CLINIC,"<Point><coordinates>121.123581,13.939774,0.000000</coordinates></Point>",
880000000013325,JOLLY SMILE DENTAL CLINIC,"BLK. 7 LOT 8 MAHOGANY PROMANADE VILLAGE PULO CABUYAO LAGUNA, CABUYAO, LAGUNA, PHILIPPINES",LAGUNA,REGION 4-A,MAXICARE-ACCREDITED DENTAL CLINIC,"<Point><coordinates>121.125038,14.279231,0.000000</coordinates></Point>",
880000000013745,CRISTINA A. DIZON - ALINSUNURIN DENTAL CLINIC,"250 NATIONAL HIGHWAY BANLIC, CABUYAO, LAGUNA, CABUYAO, LAGUNA, PHILIPPINES",LAGUNA,REGION 4-A,MAXICARE-ACCREDITED DENTAL CLINIC,"<Point><coordinates>121.138298,14.228611,0.000000</coordinates></Point>",
880000000013763,TONGCO DENTAL CLINIC,"150 BANLIC NATIONAL ROAD, CABUYAO, LAGUNA, CABUYAO, LAGUNA, PHILIPPINES",LAGUNA,REGION 4-A,MAXICARE-ACCREDITED DENTAL CLINIC,"<Point><coordinates>121.138901,14.228101,0.000000</coordinates></Point>",
880000000013766,DIZON-ALINSUNURIN DENTAL CLINIC-TANAUAN,"A MABINI AVENUE,, TANAUAN CITY, BATANGAS, PHILIPPINES",BATANGAS,REGION 4-A,MAXICARE-ACCREDITED DENTAL CLINIC,"<Point><coordinates>121.139824,14.084571,0.000000</coordinates></Point>",
880000000013320,IMEE TOGA DENTAL CLINIC,"#53 NATIONAL HI-WAY BANLIC, CABUYAO, LAGUNA, PHILIPPINES",LAGUNA,REGION 4-A,MAXICARE-ACCREDITED DENTAL CLINIC,"<Point><coordinates>121.140450,14.225241,0.000000</coordinates></Point>",
880000000000356,CALAMBA DOCTORS' HOSPITAL,"NATIONAL HIGHWAY, PARIAN, CALAMBA, LAGUNA, PHILIPPINES",LAGUNA,REGION 4-A,MAXICARE-ACCREDITED HOSPITAL,"<Point><coordinates>121.142258,14.217525,0.000000</coordinates></Point>",
880000000009742,H VILL HOSPITAL,"82 J.P. RIZAL ST. MANGGAHAN, RODRIGUEZ (MONTALBAN), RIZAL, PHILIPPINES",RIZAL,REGION 4-A,MAXICARE-ACCREDITED HOSPITAL,"<Point><coordinates>121.142998,14.726718,0.000000</coordinates></Point>",
880000000013682,BISCOCHO'S DENTAL CLINIC-MABINI,"GROUND FLR. GLORIA GALLERIA BLDG. A. MABINI AVE. TANAUAN CITY, TANAUAN CITY, BATANGAS, PHILIPPINES",BATANGAS,REGION 4-A,MAXICARE-ACCREDITED DENTAL CLINIC,"<Point><coordinates>121.144630,14.083842,0.000000</coordinates></Point>",
880000000005972,BISCOCHO'S DENTAL CLINIC- BURGOS,"87 BARANGAY 7 A. BURGOS ST. TANAUAN CITY, TANAUAN CITY, BATANGAS, PHILIPPINES",BATANGAS,REGION 4-A,MAXICARE-ACCREDITED DENTAL CLINIC,"<Point><coordinates>121.146240,14.082448,0.000000</coordinates></Point>",
880000000005993,"ST. JOHN THE BAPTIST MEDICAL CENTER, INC.","PARIAN, CALAMBA, LAGUNA, PHILIPPINES",LAGUNA,REGION 4-A,MAXICARE-ACCREDITED HOSPITAL,"<Point><coordinates>121.147987,14.193990,0.000000</coordinates></Point>",
880000000014767,DR. RAQUEL HERMANO-GUEVARRA DENTAL CLINIC,"#128 NATIONAL HIGHWAY, REAL, CALAMBA, LAGUNA, PHILIPPINES",LAGUNA,REGION 4-A,MAXICARE-ACCREDITED DENTAL CLINIC,"<Point><coordinates>121.150063,14.198159,0.000000</coordinates></Point>",
880000000013367,HUMARANG COMPREHENSIVE DENTAL OFFICE,"2ND LEVEL ROBINSONS PLACE LIPA CITY, LIPA CITY, BATANGAS, PHILIPPINES",BATANGAS,REGION 4-A,MAXICARE-ACCREDITED DENTAL CLINIC,"<Point><coordinates>121.150314,13.943480,0.000000</coordinates></Point>",
880000000001544,DANIEL O. MERCADO MEDICAL CENTER,"PRES. J.P. LAUREL HIGHWAY, TANAUAN, BATANGAS, PHILIPPINES",BATANGAS,REGION 4-A,MAXICARE-ACCREDITED HOSPITAL,"<Point><coordinates>121.151230,14.079690,0.000000</coordinates></Point>",
880000000014911,COMFY DENTAL CARE CLINIC,"R VENUE BLDG., AVELINO ST. COR. JP LAUREL HI-WAY, BRGY 3, TANAUAN, BATANGAS, PHILIPPINES",BATANGAS,REGION 4-A,MAXICARE-ACCREDITED DENTAL CLINIC,"<Point><coordinates>121.151329,14.079565,0.000000</coordinates></Point>",
880000000002908,MARY MEDIATRIX MEDICAL CENTER,"J.P. LAUREL HIGHWAY, LIPA CITY, BATANGAS, PHILIPPINES",BATANGAS,REGION 4-A,MAXICARE-ACCREDITED HOSPITAL,"<Point><coordinates>121.151703,13.943376,0.000000</coordinates></Point>",
880000000000357,CALAMBA EYE CENTER,"2ND FLOOR, CALAMBA MEDICAL CENTER, CROSSING,, CALAMBA, LAGUNA, PHILIPPINES",LAGUNA,REGION 4-A,MAXICARE OUTSOURCED HOSPITAL,"<Point><coordinates>121.154160,14.206604,0.000000</coordinates></Point>",
880000000000359,CALAMBA MEDICAL CENTER,"CROSSING, CALAMBA, LAGUNA, PHILIPPINES",LAGUNA,REGION 4-A,MAXICARE-ACCREDITED HOSPITAL,"<Point><coordinates>121.154198,14.206687,0.000000</coordinates></Point>",
880000000013428,Y&S DENTAL CLINIC,"UNIT 1,2ND  FLOOR JULITA'S BUILDING CROSSING CALAMBA CITY LAGUNA, CALAMBA CITY, LAGUNA, PHILIPPINES",LAGUNA,REGION 4-A,MAXICARE-ACCREDITED DENTAL CLINIC,"<Point><coordinates>121.154846,14.205564,0.000000</coordinates></Point>",
880000000014912,VALDEZ-CANTA DENTAL CLINIC,"RM. 305 DANHEDAN BLDG. BRGY. I, CROSSING, CALAMBA, LAGUNA, PHILIPPINES",LAGUNA,REGION 4-A,MAXICARE-ACCREDITED DENTAL CLINIC,"<Point><coordinates>121.155159,14.205970,0.000000</coordinates></Point>",
880000000009718,PAG-ASA HOSPITAL,"899 NATIONAL ROAD PAG-ASA, BINANGONAN, RIZAL, PHILIPPINES",RIZAL,REGION 4-A,MAXICARE-ACCREDITED HOSPITAL,"<Point><coordinates>121.156296,14.520621,0.000000</coordinates></Point>",
880000000013366,SERVILLON DENTAL CLINIC,"BLK 4 LOT 16 ST. JOSEPH 2 DARASA, TANAUAN BATANGAS, TANAUAN CITY, BATANGAS, PHILIPPINES",BATANGAS,REGION 4-A,MAXICARE-ACCREDITED DENTAL CLINIC,"<Point><coordinates>121.157570,14.066359,0.000000</coordinates></Point>",
880000000013310,IRENEO RAMOS DENTAL CLINIC,"ELEAZAR BLDG, NATIONAL ROAD, BRGY. REAL CALAMBA CITY LAGUNA, CALAMBA CITY, LAGUNA, PHILIPPINES",LAGUNA,REGION 4-A,MAXICARE-ACCREDITED DENTAL CLINIC,"<Point><coordinates>121.157867,14.202985,0.000000</coordinates></Point>",
880000000013185,BAESA-TAN DENTAL CLINIC,"2H 2ND LEVEL JR. BUSINESS COMPLEX AYALA HIGHWAY LIPA CITY, LIPA CITY, BATANGAS, PHILIPPINES",BATANGAS,REGION 4-A,MAXICARE-ACCREDITED DENTAL CLINIC,"<Point><coordinates>121.158424,13.949978,0.000000</coordinates></Point>",
880000000013765,DIZON - ALINSUNURIN DENTAL CLINIC - CABUYAO,"BLK. 1 51 LOT 1 PHASE 2,  MABUHAY CITY CABUYAO, LAGUNA, CABUYAO, LAGUNA, PHILIPPINES",LAGUNA,REGION 4-A,MAXICARE-ACCREDITED DENTAL CLINIC,"<Point><coordinates>121.160324,14.239499,0.000000</coordinates></Point>",
880000000013859,MOLAR HUB DENTAL CLINIC,"UNIT J. RICHILDA BLDG. LAKEVIEW SUBD., HALANG CALAMBA CITY, LAGUNA, CALAMBA CITY, LAGUNA, PHILIPPINES",LAGUNA,REGION 4-A,MAXICARE-ACCREDITED DENTAL CLINIC,"<Point><coordinates>121.160957,14.195787,0.000000</coordinates></Point>",
880000000013309,CALAMBA CITY DENTAL CARE CLINIC,"36 P. BURGOS ST., CALAMBA CITY, LAGUNA, PHILIPPINES",LAGUNA,REGION 4-A,MAXICARE-ACCREDITED DENTAL CLINIC,"<Point><coordinates>121.161049,14.210348,0.000000</coordinates></Point>",
880000000013306,LIRA-MACALINAO DENTAL CLINIC,"2F MANGUERA BLDG. E. MAYO ST., LIPA CITY, BATANGAS, LIPA CITY, BATANGAS, PHILIPPINES",BATANGAS,REGION 4-A,MAXICARE-ACCREDITED DENTAL CLINIC,"<Point><coordinates>121.161919,13.940802,0.000000</coordinates></Point>",
880000000013187,ROWENA M. VIRTUSIO DENTAL CLINIC,"E. MAYO ST. LIPA CITY, LIPA CITY, BATANGAS, PHILIPPINES",BATANGAS,REGION 4-A,MAXICARE-ACCREDITED DENTAL CLINIC,"<Point><coordinates>121.162117,13.940187,0.000000</coordinates></Point>",
880000000014534,"DENTAL ELITE A CENTER FOR AESTHETICS, IMPLANT & RESTORATIVE DENTISTRY - LIPA CITY","ROOM 204 ST. JOSEPH BLDG., P. TORRES ST. LIPA CITY, LIPA CITY, BATANGAS, PHILIPPINES",BATANGAS,REGION 4-A,MAXICARE-ACCREDITED DENTAL CLINIC,"<Point><coordinates>121.162132,13.941895,0.000000</coordinates></Point>",
880000000013186,INCIDENTALS DENTAL CLINIC,"2/F MICHELLE BLDG. GEN. LUNA ST. SABANG, LIPA CITY, BATANGAS, PHILIPPINES",BATANGAS,REGION 4-A,MAXICARE-ACCREDITED DENTAL CLINIC,"<Point><coordinates>121.165771,13.949504,0.000000</coordinates></Point>",
880000000011967,PLTC INC. LUIS A. TIAM MEMORIAL HOSPITAL,"BASCASAN, SOLANO, NUEVA VIZCAYA, PHILIPPINES",NUEVA VIZCAYA,REGION 2,MAXICARE-ACCREDITED HOSPITAL,"<Point><coordinates>121.168472,16.499298,0.000000</coordinates></Point>",
880000000012168,VICENTE L. DANGUILAN MEMORIAL CLINIC,"76 BURGOS ST., BRGY. QUIRINO, SOLANO, NUEVA VIZCAYA, PHILIPPINES",NUEVA VIZCAYA,REGION 2,MAXICARE-ACCREDITED CLINIC,"<Point><coordinates>121.180077,16.514894,0.000000</coordinates></Point>",
880000000014782,DR. JOSEPHINE M. ARAGO DENTAL CLINIC- NOBLE,"102 NOBLE ST., BATANGAS CITY, BATANGAS, PHILIPPINES",BATANGAS,REGION 4-A,MAXICARE-ACCREDITED DENTAL CLINIC,"<Point><coordinates>121.203499,13.842070,0.000000</coordinates></Point>",
880000000013319,I LOVE MY DENTIST DENTAL CLINIC,"082 RUEDA BLDG. DR. GUALBERTO AVE. ROSARIO BATANGAS, ROSARIO, BATANGAS, PHILIPPINES",BATANGAS,REGION 4-A,MAXICARE-ACCREDITED DENTAL CLINIC,"<Point><coordinates>121.205475,13.845268,0.000000</coordinates></Point>",
880000000001586,MORONG DOCTORS HOSPITAL,"491 GOV. MARTINEZ ST., MORONG, RIZAL, PHILIPPINES",RIZAL,REGION 4-A,MAXICARE-ACCREDITED HOSPITAL,"<Point><coordinates>121.238579,14.514410,0.000000</coordinates></Point>",
880000000002268,ST. JUDE FAMILY HOSPITAL,"LOPEZ AVE. BATONG MALAKE, LOS BAÑOS, LAGUNA, PHILIPPINES",LAGUNA,REGION 4-A,MAXICARE-ACCREDITED HOSPITAL,"<Point><coordinates>121.243645,14.173267,0.000000</coordinates></Point>",
880000000002090,SAN PABLO COLLEGES MEDICAL CENTER,"BRGY. SAN RAFAEL, SAN PABLO CITY, LAGUNA, PHILIPPINES",LAGUNA,REGION 4-A,MAXICARE-ACCREDITED HOSPITAL,"<Point><coordinates>121.306961,14.070647,0.000000</coordinates></Point>",
880000000000558,"COMMUNITY HOSPITAL OF SAN PABLO CITY, INC.","C. COLAGO AVENUE, SAN PABLO CITY, LAGUNA, PHILIPPINES",LAGUNA,REGION 4-A,MAXICARE-ACCREDITED HOSPITAL,"<Point><coordinates>121.312851,14.073144,0.000000</coordinates></Point>",
880000000013742,DR. JENNETTE ABANTE-RODRIGUEZ DENTAL CLINIC,"# 3 P. ZULUETA ST., SAN PABLO CITY, LAGUNA, SAN PABLO CITY, LAGUNA, PHILIPPINES",LAGUNA,REGION 4-A,MAXICARE-ACCREDITED DENTAL CLINIC,"<Point><coordinates>121.325348,14.072062,0.000000</coordinates></Point>",
880000000013743,TEE DENTAL CLINIC,"LA SUERTE BLDG., M. PAULINO ST., SAN PABLO CITY, LAGUNA, SAN PABLO CITY, LAGUNA, PHILIPPINES",LAGUNA,REGION 4-A,MAXICARE-ACCREDITED DENTAL CLINIC,"<Point><coordinates>121.326294,14.066276,0.000000</coordinates></Point>",
880000000009478,LAGUNA HOLY FAMILY HOSPITAL,"1824 J. DE LEON ST. BRGY. PAGSAWITAN, SANTA CRUZ, LAGUNA, PHILIPPINES",LAGUNA,REGION 4-A,MAXICARE-ACCREDITED HOSPITAL,"<Point><coordinates>121.420273,14.275249,0.000000</coordinates></Point>",
880000000000492,CHRISTIAN GENERAL HOSPITAL,"564 A. MABINI ST., PAGSANJAN, LAGUNA, PHILIPPINES",LAGUNA,REGION 4-A,MAXICARE-ACCREDITED HOSPITAL,"<Point><coordinates>121.455330,14.273575,0.000000</coordinates></Point>",
880000000006004,ALMORA GENERAL HOSPITAL,"PUROK 4, BULANAO, TABUK, KALINGA, PHILIPPINES",KALINGA,CAR,MAXICARE-ACCREDITED HOSPITAL,"<Point><coordinates>121.463448,17.470856,0.000000</coordinates></Point>",
880000000005988,CALLANG GENERAL HOSPITAL  MEDICAL CENTER INC.,"JUDGE TAGUINOD COR. TURINGAN STS. CENTRO EAST, SANTIAGO CITY, ISABELA, PHILIPPINES",ISABELA,REGION 2,MAXICARE-ACCREDITED HOSPITAL,"<Point><coordinates>121.550339,16.692522,0.000000</coordinates></Point>",
880000000000629,DE VERA'S MEDICAL CENTER,"CALAO EAST 3311, SANTIAGO CITY, ISABELA, PHILIPPINES",ISABELA,REGION 2,MAXICARE-ACCREDITED HOSPITAL,"<Point><coordinates>121.556664,16.695988,0.000000</coordinates></Point>",
880000000006018,CAGAYAN VALLEY ADVENTIST HOSPITAL INC.,"PUROK 5, NATIONAL HIGH-WAY, MABINI, SANTIAGO CITY, ISABELA, PHILIPPINES",ISABELA,REGION 2,MAXICARE-ACCREDITED HOSPITAL,"<Point><coordinates>121.566643,16.696453,0.000000</coordinates></Point>",
880000000013369,CADA DENTAL CLINIC,"14 ALLAREY ST. BRGY 1, LUCENA CITY, LUCENA CITY, QUEZON, PHILIPPINES",QUEZON,REGION 4-A,MAXICARE-ACCREDITED DENTAL CLINIC,"<Point><coordinates>121.611443,13.933109,0.000000</coordinates></Point>",
880000000013327,HERMOGENES DENTAL CLINIC,"5345 DALAHICAN ROAD LITTLE BAGUIO IBABANG DUPAY, LUCENA CITY, QUEZON, PHILIPPINES",QUEZON,REGION 4-A,MAXICARE-ACCREDITED DENTAL CLINIC,"<Point><coordinates>121.624016,13.938774,0.000000</coordinates></Point>",
880000000014394,A.L VALENCIA DENTAL CLINIC,"3RD FLR. SM CITY LUCENA, RED-V, LUCENA CITY, QUEZON, PHILIPPINES",QUEZON,REGION 4-A,MAXICARE-ACCREDITED DENTAL CLINIC,"<Point><coordinates>121.625305,13.941190,0.000000</coordinates></Point>",
880000000014054,"DR. RONALD P. GUZMAN MEDICAL CENTER, INC.","ENRILE BOULEVARD, CAGGAY HIGHWAY, TUGUEGARAO CITY, CAGAYAN, PHILIPPINES",CAGAYAN,REGION 2,MAXICARE-ACCREDITED HOSPITAL,"<Point><coordinates>121.756027,17.649839,0.000000</coordinates></Point>",
880000000014738,YOUR FRIENDLY DENTAL CLINIC,"DR. RONALD P. GUZMAN MEDICAL CENTER, ENRILE BLVD. CARIG SUR, TUGUEGARAO CITY, CAGAYAN, PHILIPPINES",CAGAYAN,REGION 2,MAXICARE-ACCREDITED DENTAL CLINIC,"<Point><coordinates>121.756371,17.649462,0.000000</coordinates></Point>",
880000000009055,CAUAYAN MEDICAL SPECIALISTS HOSPITAL,"27 BURGOS ST., DISTRICT II, CAUAYAN CITY, ISABELA, PHILIPPINES",ISABELA,REGION 2,MAXICARE-ACCREDITED HOSPITAL,"<Point><coordinates>121.770393,16.936214,0.000000</coordinates></Point>",
880000000013181,MODERN DENTISTRY CLINIC,"SAN MIGUEL, BOAC MARINDUQUE, BOAC, MARINDUQUE, PHILIPPINES",MARINDUQUE,REGION 4-B,MAXICARE-ACCREDITED DENTAL CLINIC,"<Point><coordinates>121.834946,13.441883,0.000000</coordinates></Point>",
880000000013180,CLASSICUS DENTISTA CENTRE,"MADRIGAL ST. BRGY. MALUSAK, BOAC, MARINDUQUE, PHILIPPINES",MARINDUQUE,REGION 4-B,MAXICARE-ACCREDITED DENTAL CLINIC,"<Point><coordinates>121.838081,13.450649,0.000000</coordinates></Point>",
880000000013683,LEAL DENTAL CLINIC,"BARANGAY GITNANG BAYAN, MOGPOG, MARINDUQUE, PHILIPPINES",MARINDUQUE,REGION 4-B,MAXICARE-ACCREDITED DENTAL CLINIC,"<Point><coordinates>121.850136,13.468345,0.000000</coordinates></Point>",
880000000001130,ISABELA DOCTORS GENERAL HOSPITAL,"NATIONAL HIGHWAY , BALIGATAN, ILAGAN, ISABELA, PHILIPPINES",ISABELA,REGION 2,MAXICARE-ACCREDITED HOSPITAL,"<Point><coordinates>121.863510,17.118015,0.000000</coordinates></Point>",
880000000013179,SMILE DENTAL CLINIC,"128 L. MENA ST. BRGY. PAG ASA STA CRUZ MARINDUQUE, SANTA CRUZ, MARINDUQUE, PHILIPPINES",MARINDUQUE,REGION 4-B,MAXICARE-ACCREDITED DENTAL CLINIC,"<Point><coordinates>122.030212,13.469764,0.000000</coordinates></Point>",
880000000013467,NAGA TOOTH SPECIALISTS,"SUITE 209 PLAZA MEDICA, PANGANIBAN DRIVE,, NAGA CITY, CAMARINES SUR, PHILIPPINES",CAMARINES SUR,REGION 5,MAXICARE-ACCREDITED DENTAL CLINIC,"<Point><coordinates>123.195358,13.621057,0.000000</coordinates></Point>",
880000000000706,DR. AMANDO D. COPE MEMORIAL HOSPITAL,"RUIVIVAR ST., TAYHI, , ALBAY, PHILIPPINES",ALBAY,REGION 5,MAXICARE-ACCREDITED HOSPITAL,"<Point><coordinates>123.729530,13.360983,0.000000</coordinates></Point>",
880000000000032,AGO GENERAL HOSPITAL,"RIZAL ST., LEGAZPI CITY, ALBAY, PHILIPPINES",ALBAY,REGION 5,MAXICARE-ACCREDITED HOSPITAL,"<Point><coordinates>123.730942,13.139726,0.000000</coordinates></Point>",
880000000001149,JAIME B. BERCES MEMORIAL HOSPITAL,"V. DEMETRIOU ST., , ALBAY, PHILIPPINES",ALBAY,REGION 5,MAXICARE-ACCREDITED HOSPITAL,"<Point><coordinates>123.731644,13.358395,0.000000</coordinates></Point>",
880000000013435,DR. JENNIFER LIANKO AGNAS DENTAL CLINIC,"DAMETRIOU ST. QUINALE TABACO CITY, TABACO CITY, ALBAY, PHILIPPINES",ALBAY,REGION 5,MAXICARE-ACCREDITED DENTAL CLINIC,"<Point><coordinates>123.732468,13.359078,0.000000</coordinates></Point>",
880000000013434,DR. ROMEO BRENDAN F. ATIENZA DENTAL CLINIC,"SIKATUNA COR. ROSARIO ST. OLD ALBAY DIST. LEGAZPI CITY, LEGAZPI CITY, ALBAY, PHILIPPINES",ALBAY,REGION 5,MAXICARE-ACCREDITED DENTAL CLINIC,"<Point><coordinates>123.734009,13.137712,0.000000</coordinates></Point>",
880000000009169,IBALONG MEDICAL CENTER,"BICOL MEDICAL PLAZA, RIZAL ST, LEGAZPI CITY, ALBAY, PHILIPPINES",ALBAY,REGION 5,MAXICARE-ACCREDITED CLINIC,"<Point><coordinates>123.737411,13.138462,0.000000</coordinates></Point>",
880000000013432,BELLUDO DENTAL CLINIC AND SUPPLY,"RM 203 AQUENDE BLDG., LEGAZPI CITY, ALBAY, PHILIPPINES",ALBAY,REGION 5,MAXICARE-ACCREDITED DENTAL CLINIC,"<Point><coordinates>123.737984,13.154376,0.000000</coordinates></Point>",
880000000000825,"ESTEVEZ MEMORIAL HOSPITAL, INC.","DON JUAN ESTEVEZ ST. GUEVARRA SUBDIVISION, LEGAZPI CITY, ALBAY, PHILIPPINES",ALBAY,REGION 5,MAXICARE-ACCREDITED HOSPITAL,"<Point><coordinates>123.740791,13.138140,0.000000</coordinates></Point>",
880000000002460,TANCHULING GENERAL HOSPITAL,"IMPERIAL COURT SUBD., BRGY. 24 RIZAL ST., LEGAZPI CITY, ALBAY, PHILIPPINES",ALBAY,REGION 5,MAXICARE-ACCREDITED HOSPITAL,"<Point><coordinates>123.751999,13.143699,0.000000</coordinates></Point>",
880000000000254,BICOL EYE CENTER-LEGASPI,"LEGASPI 1 # 330 RIZAL ST., LEGAZPI CITY, ALBAY, PHILIPPINES",ALBAY,REGION 5,MAXICARE-ACCREDITED CLINIC,"<Point><coordinates>123.752663,13.144702,0.000000</coordinates></Point>",
880000000013433,SHERLIM DENTAL CARE & SUPPLY,"RIZAL ST. OLD ALBAY, LEGAZPI CITY, IBALONG MEDICAL PLAZA, LEGAZPI CITY, ALBAY, PHILIPPINES",ALBAY,REGION 5,MAXICARE-ACCREDITED DENTAL CLINIC,"<Point><coordinates>123.754456,13.147956,0.000000</coordinates></Point>",
880000000000614,DAVAO DOCTORS HOSPITAL,"118 QUIRINO AVENUE, DAVAO CITY, DAVAO DEL SUR, PHILIPPINES",DAVAO DEL SUR,REGION 11,MAXICARE-ACCREDITED HOSPITAL,"<Point><coordinates>125.604584,7.070240,0.000000</coordinates></Point>",